"OFFICECODE","OFFICENAME","CITY","REGION","STATE","PINCODE","DICOFFICETYPEID"
"1037","KENDRIYA VIDYALAYA Silvassa","Silvasa","AHMEDABAD","Dadra and Nagar Haveli and Daman and Diu",396230,6
"1403","KENDRIYA VIDYALAYA AGCR COLONY","Agcrcolony","DELHI","Delhi",110092,6
"1404","KENDRIYA VIDYALAYA ANDREWS GANJ","Andrewsganj","DELHI","Delhi",110024,6
"1405","KENDRIYA VIDYALAYA (AFS) ARJANGARH","Arjangarh","DELHI","Delhi",110047,6
"1406","KENDRIYA VIDYALAYA NTPC BADARPUR","Badarpurntpc","DELHI","Delhi",110044,6
"1407","KENDRIYA VIDYALAYA (AFS) BAWANA","Bawana","DELHI","Delhi",110039,6
"1408","KENDRIYA VIDYALAYA (BSF) CHHAWALA CAMP","Chhawalacamp","DELHI","Delhi",110071,6
"1409","KENDRIYA VIDYALAYA CANTT NO.I DELHI","Delhicantt","DELHI","Delhi",110010,6
"1410","KENDRIYA VIDYALAYA NO.II DELHI CANTT","Delhicantt","DELHI","Delhi",110010,6
"1411","KENDRIYA VIDYALAYA No. III DELHI CANTT","Delhicantt","DELHI","Delhi",110010,6
"1412","KENDRIYA VIDYALAYA NO. IV DELHI CANTT KANDHAR LINES","Delhicantt","DELHI","Delhi",110010,6
"1413","KENDRIYA VIDYALAYA SECTOR 5 DWARKA","Dwarkasec5","DELHI","Delhi",110075,6
"1417","KENDRIYA VIDYALAYA GOLE MARKET","Golemarket","DELHI","Delhi",110001,6
"1423","KENDRIYA VIDYALAYA INA COLONY","Inacolony","DELHI","Delhi",110023,6
"1424","KENDRIYA VIDYALAYA JANAKPURI","Janakpuri","DELHI","Delhi",110058,6
"1425","KENDRIYA VIDYALAYA (CRPF) JHARODA KALAN","Jharodakalan","DELHI","Delhi",110072,6
"1426","KENDRIYA VIDYALAYA LAWRANCE ROAD KESHAVPURAM","Lawranceroad","DELHI","Delhi",110035,6
"1427","KENDRIYA VIDYALAYA MASJID MOTH","Masjidmoth","DELHI","Delhi",110049,6
"1428","KENDRIYA VIDYALAYA NARELA","Narela","DELHI","Delhi",110040,6
"1429","KENDRIYA VIDYALAYA NEW FRIENDS CENTRE VIGYAN VIHAR","Newfriendscentre","DELHI","Delhi",110092,6
"1430","KENDRIYA VIDYALAYA NEW MEHRAULI ROAD JNU","Newmehrauliroad","DELHI","Delhi",110067,6
"1432","KENDRIYA VIDYALAYA PAPANKALAN (SPG) DWARKA","Dwarkaspg","DELHI","Delhi",110077,6
"1433","KENDRIYA VIDYALAYA PASCHIM VIHAR","Paschimvihar","DELHI","Delhi",110087,6
"1434","KENDRIYA VIDYALAYA PITAMPURA","Pitampura","DELHI","Delhi",110034,6
"1435","KENDRIYA VIDYALAYA PRAGATIVIHAR","Pragativihar","DELHI","Delhi",110003,6
"1436","KENDRIYA VIDYALAYA PUSHP VIHAR SAKET","Pushpviharsaket","DELHI","Delhi",110017,6
"1437","KENDRIYA VIDYALAYA SECTOR II R.K. PURAM","Rkpuramsec2","DELHI","Delhi",110022,6
"1438","KENDRIYA VIDYALAYA SECTOR IV R.K. PURAM","Rkpuramsec4","DELHI","Delhi",110022,6
"1439","KENDRIYA VIDYALAYA SECTOR VIII R.K. PURAM","Rkpuramsec8","DELHI","Delhi",110022,6
"1440","KENDRIYA VIDYALAYA (AFS)RAJOKARI","Rajokari","DELHI","Delhi",110038,6
"1441","KENDRIYA VIDYALAYA RANGPURI","Rangpuriiaai","DELHI","Delhi",110037,6
"1442","KENDRIYA VIDYALAYA SECTOR- III ROHINI","Rohinisec3","DELHI","Delhi",110085,6
"1443","KENDRIYA VIDYALAYA SECTOR-VIII ROHINI","Rohinisec8","DELHI","Delhi",110085,6
"1444","KENDRIYA VIDYALAYA SECTOR 22 ROHINI","Rohinisec22","DELHI","Delhi",110085,6
"1445","KENDRIYA VIDYALAYA SECTOR 25 ROHINI","Rohinisec25","DELHI","Delhi",,6
"1446","KENDRIYA VIDYALAYA SAINIK VIHAR","Sainikvihar","DELHI","Delhi",110034,6
"1447","KENDRIYA VIDYALAYA SHALIMAR BAGH","Shalimarbagh","DELHI","Delhi",110088,6
"1448","KENDRIYA VIDYALAYA TAGORE GARDEN","Tagoregarden","DELHI","Delhi",110027,6
"1449","KENDRIYA VIDYALAYA (AFS) TUGHLAKABAD","Tughlakabad","DELHI","Delhi",110080,6
"1450","KENDRIYA VIDYALAYA VASANT KUNJ","Vasantkunj","DELHI","Delhi",110070,6
"1451","KENDRIYA VIDYALAYA VIKASPURI","Vikaspuri","DELHI","Delhi",110059,6
"2102","KENDRIYA VIDYALAYA SECTOR 12 DWARKA","Dwarkasec12","DELHI","Delhi",110078,6
"2211","KENDRIYA VIDYALAYA KHICHARIPUR DELHI.","Khicharipur","DELHI","Delhi",110091,6
"2263","KENDRIYA VIDYALAYA SHAKURBASTI","Shakurbasti","DELHI","Delhi",110087,6
"2282","KENDRIYA VIDYALAYA SECTOR 28 ROHINI","Rohinisec28","DELHI","Delhi",110042,6
"2336","KENDRIYA VIDYALAYA SHAHADARA","Shahdara","DELHI","Delhi",110091,6
"2397","KENDRIYA VIDYALAYA DR. RAJENDRA PRASAD","Drrajendra","DELHI","Delhi",110004,6
"1066","KENDRIYA VIDYALAYA BAMBOLIM CAMP","Bambolimcamp","MUMBAI","Maharashtra",,6
"1067","KENDRIYA VIDYALAYA (INS)MANDOVI","Mandoviins","MUMBAI","Maharashtra",403109,6
"1068","KENDRIYA VIDYALAYA PONDA","Ponda","MUMBAI","Maharashtra",403401,6
"1069","KENDRIYA VIDYALAYA NO.I VASCO-DA-GAMA","Vascodagama","MUMBAI","Maharashtra",403802,6
"1070","KENDRIYA VIDYALAYA NO.II VASCO-DA-GAMA","Vascodagama","MUMBAI","Maharashtra",403802,6
"1001","KENDRIYA VIDYALAYA SAC AHMEDABAD","Ahmedabadsac","AHMEDABAD","Gujarat",380015,6
"1002","KENDRIYA VIDYALAYA AHMEDABAD CANTT","Ahmedabadcant","AHMEDABAD","Gujarat",380003,6
"1003","KENDRIYA VIDYALAYA No. I M.R. CAMPUS AHMEDABAD","Mrcampus","AHMEDABAD","Gujarat",380004,6
"1004","KENDRIYA VIDYALAYA ONGC CHANDKHEDA","Chandkhedaongc","AHMEDABAD","Gujarat",382424,6
"1005","KENDRIYA VIDYALAYA SABARMATI","Sabarmati","AHMEDABAD","Gujarat",380019,6
"1006","KENDRIYA VIDYALAYA ONGC ANKLESHWAR","Ankleshwarongc","AHMEDABAD","Gujarat",393010,6
"1007","KENDRIYA VIDYLAYA NO.I BARODA","Baroda","AHMEDABAD","Gujarat",390022,6
"1008","KENDRIYA VIDYALAYA NO.II BARODA","Baroda","AHMEDABAD","Gujarat",390022,6
"1009","KENDRIYA VIDYALAYA NO.III (AFS) BARODA","Baroda","AHMEDABAD","Gujarat",390014,6
"1010","KENDRIYA VIDYALAYA NO. IV BARODA","Barodanoivongc","AHMEDABAD","Gujarat",390009,6
"1011","KENDRIYA VIDYALAYA BHAVNAGAR PARA","Bhavnagarpara","AHMEDABAD","Gujarat",364003,6
"1012","KENDRIYA VIDYLAYA AFS NO.I BHUJ","Bhuj","AHMEDABAD","Gujarat",370001,6
"1013","KENDRIYA VIDYALAYA NO.II BHUJ CANTT.","Bhuj","AHMEDABAD","Gujarat",370001,6
"1014","KENDRIYA VIDYALAYA ONGC CAMBEY","Cambeyongc","AHMEDABAD","Gujarat",388630,6
"1015","KENDRIYA VIDYALAYA BSF DANTIWADA","Dantiwadabsf","AHMEDABAD","Gujarat",385505,6
"1016","KENDRIYA VIDYALAYA DHARANGANDHRA","Dharangandhra","AHMEDABAD","Gujarat",363310,6
"1018","KENDRIYA VIDYALAYA DWARKA","Dwarka","AHMEDABAD","Gujarat",361335,6
"1019","KENDRIYA VIDYALAYA IFFCO GANDHIDHAM","Gandhidhamiffco","AHMEDABAD","Gujarat",370203,6
"1020","KENDRIYA VIDYALAYA RLY. COLONY GANDHIDHAM","Gandhidhamrly","AHMEDABAD","Gujarat",370201,6
"1021","KENDRIYA VIDYALAYA CRPF GANDHINAGAR","Gandhinagarcrpf","AHMEDABAD","Gujarat",,6
"1022","KENDRIYA VIDYALAYA No. III GANDHINAGAR CANTT","Gandhinagarcant","AHMEDABAD","Gujarat",382045,6
"1023","KENDRIYA VIDYALAYA No. I GANDHINAGAR","Gandhinagarsec30","AHMEDABAD","Gujarat",382030,6
"1024","KENDRIYA VIDYALAYA HIMMAT NAGAR","Himmatnagar","AHMEDABAD","Gujarat",383001,6
"1025","KENDRIYA VIDYALAYA NO.I AFS JAMNAGAR","Jamnagar","AHMEDABAD","Gujarat",361003,6
"1026","KENDRIYA VIDYALAYA NO.II JAMNAGAR","Jamnagar","AHMEDABAD","Gujarat",361005,6
"1027","KENDRIYA VIDYALAYA NO.III (AF) JAMNAGAR","Jamnagar","AHMEDABAD","Gujarat",361004,6
"1028","KENDRIYA VIDYALAYA AFS SAMANA","Samana","AHMEDABAD","Gujarat",360520,6
"1029","KENDRIYA VIDYALAYA INS VALSURA","Valsurains","AHMEDABAD","Gujarat",361150,6
"1030","KENDRIYA VIDYALAYA JETPUR","Jetpur","AHMEDABAD","Gujarat",360370,6
"1031","KENRIYA VIDYALAYA JUNAGARH","Junagarh","AHMEDABAD","Gujarat",362001,6
"1032","KENDRIYA VIDYALAYA ONGC MEHSANA","Mehsanaongc","AHMEDABAD","Gujarat",384002,6
"1033","KENDRIYA VIDYALAYA AFS NALIYA","Naliya","AHMEDABAD","Gujarat",370655,6
"1034","KENDRIYA VIDYALAYA OKHA","Okha","AHMEDABAD","Gujarat",361350,6
"1035","KENDRIYA VIDYALAYA PORBANDER","Porbander","AHMEDABAD","Gujarat",360576,6
"1038","KENRIYA VIDYALAYA NO.I SURAT","Surat","AHMEDABAD","Gujarat",395007,6
"1039","KENDRIYA VIDYALAYA HAJIRA NO.II SURAT","Surat","AHMEDABAD","Gujarat",394515,6
"1040","KENDRIYA VIDYALAYA ONGC NO.III SURAT","Surat","AHMEDABAD","Gujarat",,6
"1041","KENDRIYA VIDYALAYA V V NAGAR","Vvnagar","AHMEDABAD","Gujarat",388120,6
"1042","KENDRIYA VIDYALAYA VIRAMGAON","Viramgaon","AHMEDABAD","Gujarat",382150,6
"1043","KENDRIYA VIDYALAYA AFS WADSAR","Wadsar","AHMEDABAD","Gujarat",282721,6
"2085","KENDRIYA VIDYALAYA GODHRA","Godhra","AHMEDABAD","Gujarat",389001,6
"2194","KENDRIYA VIDYALAYA AFS DARJEEPURA","Darjeepura","AHMEDABAD","Gujarat",390022,6
"2195","KENDRIYA VIDYALAYA DAHOD","Dahodfganjrly","AHMEDABAD","Gujarat",389160,6
"2371","KENDRIYA VIDYALAYA PATAN","Patan","AHMEDABAD","Gujarat",384265,6
"2445","KENDRIYA VIDYALAYA DPA GANDHIDHAM","Gandhidham","AHMEDABAD","Gujarat",370240,6
"1290","KENDRIYA VIDYALAYA NO.I AMBALA CANTT","Ambalacantt","GURUGRAM","Haryana",133001,6
"1291","KENDRIYA VIDYALAYA NO.II AMBALA CANTT.","Ambalacantt","GURUGRAM","Haryana",133001,6
"1292","KENDRIYA VIDYALAYA NO.III AMBALA CANTT.","Ambalacantt","GURUGRAM","Haryana",133001,6
"1293","KENDRIYA VIDYALAYA NO.IV AMBALA CANTT.","Ambalacantt","GURUGRAM","Haryana",133001,6
"1294","KENDRIYA VIDYALAYA ITBP RAMGARH AMBALA","Ramgarhitbp","GURUGRAM","Haryana",134103,6
"1306","KENDRIYA VIDYALAYA NO.I CHANDIMANDIR","Chandimandir","GURUGRAM","Haryana",,6
"1307","KENDRIYA VIDYALAYA NO.II CHANDIMANDIR","Chandimandir","GURUGRAM","Haryana",134107,6
"1317","KENDRIYA VIDYALAYA HARSINGPURA","Harsingpura","GURUGRAM","Haryana",132114,6
"1318","KENDRIYA VIDYALAYA HISSAR CANTT","Hisarcant","GURUGRAM","Haryana",125006,6
"1320","KENDRIYA VIDYALAYA JHAJJAR","Jhajjar","GURUGRAM","Haryana",124104,6
"1323","KENDRIYA VIDYALAYA KARNAL","Karnal","GURUGRAM","Haryana",132001,6
"1327","KENDRIYA VIDYALAYA MANDI","Mandi","GURUGRAM","Haryana",175001,6
"1330","KENDRIYA VIDYALAYA NAHARA","Nahara","GURUGRAM","Haryana",131103,6
"1333","KENDRIYA VIDYALAYA PALUWAS","Paluwas","GURUGRAM","Haryana",127021,6
"1338","KENDRIYA VIDYALAYA (CRPF) PINJORE","Pinjorecrpf","GURUGRAM","Haryana",134104,6
"1340","KENDRIYA VIDYALAYA ROHTAK","Rohtak","GURUGRAM","Haryana",124001,6
"1344","KENDRIYA VIDYALAYA (AFS) NO.I SIRSA","Sirsa","GURUGRAM","Haryana",125055,6
"1345","KENDRIYA VIDYALAYA No. II SIRSA","Sirsa","GURUGRAM","Haryana",125055,6
"1414","KENDRIYA VIDYALAYA NO.I FARIDABAD","Faridabad","GURUGRAM","Haryana",,6
"1415","KENDRIYA VIDYALAYA No.II FARIDABAD","Faridabad","GURUGRAM","Haryana",121001,6
"1416","KENDRIYA VIDYALAYA NO.III FARIDABAD","Faridabad","GURUGRAM","Haryana",121001,6
"1418","KENDRIYA VIDYALAYA (AFS) NO. I GURGAON","Gurgaon","GURUGRAM","Haryana",,6
"1420","KENDRIYA VIDYALAYA SOHNA ROAD NO.II GURGAON","Gurgaon","GURUGRAM","Haryana",122001,6
"1454","KENDRIYA VIDYALAYA (NSG)MANESAR","Manesarnsg","GURUGRAM","Haryana",122051,6
"1456","KENDRIYA VIDYALAYA PALWAL","Palwal","GURUGRAM","Haryana",121102,6
"1457","KENDRIYA VIDYALAYA RAGHUNATHPURA (NARNAUL)","Raghunathpura","GURUGRAM","Haryana",,6
"1458","KENDRIYA VIDYALAYA REWARI","Rewari","GURUGRAM","Haryana",123401,6
"2235","KENDRIYA VIDYALAYA BHAKLI","Bhakli","GURUGRAM","Haryana",123302,6
"2322","KENDRIYA VIDYALAYA MATHANA","Mathana","GURUGRAM","Haryana",136118,6
"2330","KEDRIYA VIDYALAYA BUDAYAN JIND","Budayan","GURUGRAM","Haryana",,6
"2346","KENDRIYA VIDYALAYA MATANHAIL","Matanhail","GURUGRAM","Haryana",124106,6
"2347","KENDRIYA VIDYALAYA FATEHABAD","Fatehabad","GURUGRAM","Haryana",125048,6
"2370","KENDRIYA VIDYALAYA SAMALKHA BEHOLI","Beholismalkha","GURUGRAM","Haryana",132101,6
"2404","KENDRIYA VIDYALAYA CRPF KADARPUR","Crpfkadarpur","GURUGRAM","Haryana",122098,6
"2400","KENDRIYA VIDYALAYA GC CRPF SONEPAT","Gccrpfsnp","GURUGRAM","Haryana",131021,6
"2439","KENDRIYA VIDYALAYA BILASPUR","Bilaspuryjud","GURUGRAM","Haryana",135102,6
"1316","KENDRIYA VIDYALAYA HAMIRPUR","Hamirpur","GURUGRAM","Haryana",,6
"1324","KENDRIYA VIDYALAYA (AFS) KASAULI","Kasauli","GURUGRAM","Haryana",173204,6
"1325","KENDRIYA VIDYALAYA SUBATHU","Subathu","GURUGRAM","Haryana",173206,6
"1326","KENDRIYA VIDYALAYA SAINJ","Sainjkullu","GURUGRAM","Haryana",175134,6
"1329","KENDRIYA VIDYALAYA NADAUN (HP)","Nadaun","GURUGRAM","Haryana",177033,6
"1331","KENDRIYA VIDYALAYA NALETI","Naleti","GURUGRAM","Haryana",177104,6
"1332","KENDRIYA VIDYALAYA PALAMPUR","Palampur","GURUGRAM","Haryana",176061,6
"1339","KENDRIYA VIDYALAYA RECONG PEO","Recongpeo","GURUGRAM","Haryana",172107,6
"1341","KENDRIYA VIDYALAYA ITBP SARHAN","Sarhanitbp","GURUGRAM","Haryana",172034,6
"1342","KENDRIYA VIDYALAYA JUTOGH","Jutogh","GURUGRAM","Haryana",171008,6
"1343","KENDRIYA VIDYALAYA SHIMLA","Shimla","GURUGRAM","Haryana",171001,6
"1346","KENDRIYA VIDYALAYA YOL CANTT","Yolcantt","GURUGRAM","Haryana",176052,6
"1649","KENDRIYA VIDYALAYA ALHILAL","Alhilal","GURUGRAM","Haryana",176081,6
"1656","KENDRIYA VIDYALAYA BAKLOH","Bakloh","GURUGRAM","Haryana",173601,6
"1658","KENDRIYA VIDYALAYA NHPC DALHOUSIE CANTT BANIKHET","Banikhet","GURUGRAM","Haryana",,6
"1661","KENDRIYA VIDYALAYA BHANALA","Bhanala","GURUGRAM","Haryana",176208,6
"1662","KENDRIYA VIDYALAYA NHPC NO.I HEP CHAMERA","Chamera","GURUGRAM","Haryana",176325,6
"1663","KENDRIYA VIDYALAYA NO. II CHAMERA","Chamera","GURUGRAM","Haryana",176318,6
"1666","KENDRIYA VIDYALAYA DHARAMSHALA CANTT","Dharamshala","GURUGRAM","Haryana",176216,6
"2075","KENDRIYA VIDYALAYA KEYLONG LAHAUL SPITI","Lahaulspiti","GURUGRAM","Haryana",175132,6
"2214","KENDRIYA VIDYALAYA BANGANA","Bangana","GURUGRAM","Haryana",174307,6
"2276","KENDRIYA VIDYALAYA GHUMARWIN","Ghumarwin","GURUGRAM","Haryana",,6
"2296","KENDRIYA VIDYALAYA (SANTOKHGARH) SALOH","Saloh","GURUGRAM","Haryana",177209,6
"2331","KENDRIYA VIDYALAYA SANDHOL","Sandhol","GURUGRAM","Haryana",176090,6
"2444","KENDRIYA VIDYALAYA DHARAMPUR","Dharampur","GURUGRAM","Haryana",299410,6
"1647","KENDRIYA VIDYALAYA NO.I AKHNOOR","Akhnoor","JAMMU","Jammu and Kashmir",812011,6
"1648","KENDRIYA VIDYALAYA NO.II AKHNOOR","Akhnoor","JAMMU","Jammu and Kashmir",181201,6
"1654","KENDRIYA VIDYALAYA AFS AWANTIPURA","Awantipura","JAMMU","Jammu and Kashmir",192122,6
"1655","KENDRIYA VIDYALAYA BADARWAH","Badarwah","JAMMU","Jammu and Kashmir",182222,6
"1657","KENDRIYA VIDYALAYA (BSF) BANDIPUR","Bandipurbsf","JAMMU","Jammu and Kashmir",193502,6
"1659","KENDRIYA VIDYALAYA BARAMULA","Baramula","JAMMU","Jammu and Kashmir",193101,6
"1660","KENDRIYA VIDYALAYA BASOLI (LAKHANPUR)","Basolilakhanpur","JAMMU","Jammu and Kashmir",,6
"1664","KENDRIYA VIDYALAYA CHENANI","Chenaniatkud","JAMMU","Jammu and Kashmir",182142,6
"1668","KENDRIYA VIDYALAYA HIRANAGAR","Hiranagar","JAMMU","Jammu and Kashmir",184142,6
"1674","KENDRIYA VIDYALAYA (CRPF) BANTALAB","Bantalabcrpf","JAMMU","Jammu and Kashmir",181123,6
"1675","KENDRIYA VIDYALAYA DHAMANA","Dhamana","JAMMU","Jammu and Kashmir",181206,6
"1676","KENDRIYA VIDYALAYA NO.I GANDHI NAGAR (JAMMU)","Jammu","JAMMU","Jammu and Kashmir",800041,6
"1677","KENDRIYA VIDYALAYA NO.II JAMMU CANTT","Jammu","JAMMU","Jammu and Kashmir",180003,6
"1678","KENDRIYA VIDYALAYA KALUCHAK","Kaluchak","JAMMU","Jammu and Kashmir",180011,6
"1679","KENDRIYA VIDYALAYA MIRAN SAHIB","Miransahib","JAMMU","Jammu and Kashmir",181101,6
"1680","KENDRIYA VIDYALAYA NAGROTA","Nagrota","JAMMU","Jammu and Kashmir",181221,6
"1681","KENDRIYA VIDYALAYA JINDRAH","Jindrah","JAMMU","Jammu and Kashmir",181224,6
"1682","KENDRIYA VIDYALAYA (SHEP) JYOTIPURAM","Jyotipuramshep","JAMMU","Jammu and Kashmir",182312,6
"1683","KENDRIYA VIDYALAYA KARGIL","Kargil","JAMMU","Jammu and Kashmir",194103,6
"1684","KENDRIYA VIDYALAYA KATHUA","Kathua","JAMMU","Jammu and Kashmir",,6
"1685","KENDRIYA VIDYALAYA KISHTWAR","Kishtwar","JAMMU","Jammu and Kashmir",182206,6
"1686","KENDRIYA VIDYALAYA LEH","Lehjammu","JAMMU","Jammu and Kashmir",,6
"1688","KENDRIYA VIDYALAYA NUBRA","Nubra","JAMMU","Jammu and Kashmir",194401,6
"1689","KENDRIYA VIDYALAYA PAHALGAON","Pahalgaon","JAMMU","Jammu and Kashmir",192126,6
"1694","KENDRIYA VIDYALAYA (BSF) RAJOURI","Rajouribsf","JAMMU","Jammu and Kashmir",185131,6
"1695","KENDRIYA VIDYALAYA SAMBA","Samba","JAMMU","Jammu and Kashmir",184121,6
"1697","KENDRIYA VIDYALAYA No. I SRINAGAR","Srinagar","JAMMU","Jammu and Kashmir",190004,6
"1698","KENDRIYA VIDYALAYA (AFS) NO.II SRINAGAR","Srinagar","JAMMU","Jammu and Kashmir",190007,6
"1699","KENDRIYA VIDYALAYA BSF NO.III PANTHACHOWK SRINAGAR","Srinagar","JAMMU","Jammu and Kashmir",191101,6
"1700","KENDRIYA VIDYALAYA NO.I UDHAMPUR","Udhampur","JAMMU","Jammu and Kashmir",182121,6
"1701","KENDRIYA VIDYALAYA NO. II UDHAMPUR","Udhampur","JAMMU","Jammu and Kashmir",182126,6
"1702","KENDRIYA VIDYALAYA URI","Urijammu","JAMMU","Jammu and Kashmir",193122,6
"2157","KENDRIYA VIDYALAYA BSF SUNDERBANI","Sunderbanibsf","JAMMU","Jammu and Kashmir",185153,6
"2158","KENDRIYA VIDYALAYA BSF HUMHAMA","Humhamabsf","JAMMU","Jammu and Kashmir",190007,6
"2160","KENDRIYA VIDYALAYA AMINOO","Aminoo","JAMMU","Jammu and Kashmir",,6
"2278","KENDRIYA VIDYALAYA JOURIAN","Jourian","JAMMU","Jammu and Kashmir",,6
"2334","KENDRIYA VIDYALAYA CENTRAL UNIVERISTY OF JAMMU","Rahyasuchani","JAMMU","Jammu and Kashmir",181143,6
"2398","KENDRIYA VIDYALAYA DODA JODHPUR","Jodhpurbelna","JAMMU","Jammu and Kashmir",182202,6
"1152","KENDRIYA VIDYALAYA NO.I BOKARO DBS CITY","Bokaro","RANCHI","Jharkhand",827004,6
"1153","KENDRIYA VIDYALAYA (RLY) NO.III BOKARO","Bokaro","RANCHI","Jharkhand",827010,6
"1154","KENDRIYA VIDYALAYA (THERMAL) BOKARO","Bokarothermal","RANCHI","Jharkhand",829107,6
"1158","KENDRIYA VIDYALAYA CHAKRADHARPUR","Chakradharpur","RANCHI","Jharkhand",833102,6
"1159","KENDRIYA VIDYALAYA (CTBS) CHANDRAPURA","Chandrapuractbs","RANCHI","Jharkhand",828403,6
"1163","KENDRIYA VIDYALAYA DHANBAD OLD DVS BUILDING","Olddvsbldg","RANCHI","Jharkhand",826001,6
"1164","KENDRIYA VIDYALAYA NO II DHANBAD","Jagjeevanngr","RANCHI","Jharkhand",826003,6
"1166","KENDRIYA VIDYALAYA GOMOH","Gomoh","RANCHI","Jharkhand",828401,6
"1168","KENDRIYA VIDYALAYA (BSF)HAZARIBAGH","Hazaribaghbsf","RANCHI","Jharkhand",,6
"1172","KENDRIYA VIDYALAYA(DVC)MAITHAN DAM","Dhanbaddvc","RANCHI","Jharkhand",828207,6
"1173","KENDRIYA VIDYALAYA (IOP) MEGHAHATUBURU","Meghahatuburu","RANCHI","Jharkhand",833223,6
"1175","KENDRIYA VIDYALAYA PATRATU","Patratu","RANCHI","Jharkhand",829120,6
"1177","KENDRIYA VIDYALAYA BARKAKANA","Barkakana","RANCHI","Jharkhand",829102,6
"1178","KENDRIYA VIDYALAYA BHURKUNDA","Bhurkunda","RANCHI","Jharkhand",829103,6
"1179","KENDRIYA VIDYALAYA RAMGARH CANTT","Ramgarhcant","RANCHI","Jharkhand",829131,6
"1180","KENDRIYA VIDYALAYA (CRPF)RANCHI","Ranchicrpf","RANCHI","Jharkhand",834004,6
"1181","KENDRIYA VIDYALAYA (HEC) RANCHI","Las.Purty","RANCHI","Jharkhand",,6
"1182","KENDRIYA VIDYALAYA DEEPATOLI RANCHI","Deepatoli","RANCHI","Jharkhand",835103,6
"1183","KENDRIYA VIDYALAYA (CCL) RANCHI","Ranchiccl","RANCHI","Jharkhand",834005,6
"1184","KENDRIYA VIDYALAYA RANCHI HINOO","Hinoor","RANCHI","Jharkhand",834002,6
"1185","KENDRIYA VIDYALAYA RANCHI NAMKUM","Namkum","RANCHI","Jharkhand",834010,6
"1188","KENDRIYA VIDYALAYA AFS SINGHARSHI","Singharshi","RANCHI","Jharkhand",937507,6
"1191","KENDRIYA VIDYALAYA SURDA GHATSILA","Surda","RANCHI","Jharkhand",832303,6
"1193","KENDRIYA VIDYALAYA TATA NAGAR","Tatanagar","RANCHI","Jharkhand",831002,6
"2071","KENDRIYA VIDYALAYA GARHWA","Garhwa","RANCHI","Jharkhand",822114,6
"2072","KENDRIYA VIDYALAYA GODDA","Godda","RANCHI","Jharkhand",814133,6
"2073","KENDRIYA VIDYALAYA JAMTARA","Jamtara","RANCHI","Jharkhand",815351,6
"2074","KENDRIYA VIDYALAYA LATEHAR","Latehar","RANCHI","Jharkhand",829206,6
"2097","KENDRIYA VIDYALAYA MADHUPUR(DEOGHAR)","Madhupur","RANCHI","Jharkhand",815353,6
"2112","KENDRIYA VIDYALAYA SIMDEGA","Simdega","RANCHI","Jharkhand",835223,6
"2130","KENDRIYA VIDYALAYA SHAHIBGANJ","Sahibganj","RANCHI","Jharkhand",816109,6
"2151","KENDRIYA VIDYALAYA GUMLA","Gumla","RANCHI","Jharkhand",835207,6
"2348","KENDRIYA VIDYALAYA KHUNTI","Khunti","RANCHI","Jharkhand",835210,6
"2349","KENDRIYA VIDYALAYA LOHARDAGA","Lohardaga","RANCHI","Jharkhand",835302,6
"2358","KENDRIYA VIDYALAYA DUMKA","Dumka","RANCHI","Jharkhand",,6
"2359","KENDRIYA VIDYALAYA GIRIDIH","Giridih","RANCHI","Jharkhand",815316,6
"2360","KENDRIYA VIDYALAYA CHATRA","Chatra","RANCHI","Jharkhand",825103,6
"2408","KENDRIYA VIDYALAYA SARAIKELA KHARSAWAN","Kvsaraikela","RANCHI","Jharkhand",833201,6
"2409","KENDRIYA VIDYALAYA KODERMA","Kvkoderma","RANCHI","Jharkhand",825409,6
"2430","KENDRIYA VIDYALAYA SER DANGOAPOSI","Dangoaposi","RANCHI","Jharkhand",833212,6
"2431","KENDRIYA VIDYALAYA PALAMAU","Palamu","RANCHI","Jharkhand",,6
"2418","KENDRIYA VIDYALAYA YESHWANTHPUR RAILWAY","Yeshwanthpur","BENGALURU","Karnataka",560022,6
"2438","KENDRIYA VIDYALAYA SADALAGA","Sadalaga","BENGALURU","Karnataka",591239,6
"1044","KENDRIYA VIDYALAYA ASC BANGALORE","Bangaluruasc","BENGALURU","Karnataka",560047,6
"1045","KENDRIYA VIDYALAYA DRDO BANGALORE","Bangalurudrdo","BENGALURU","Karnataka",560093,6
"1046","KENDRIYA VIDYALAYA HEBBAL BANGALORE","Hebbal","BENGALURU","Karnataka",560080,6
"1047","KENDRIYA VIDYALAYA IISC BANGALORE","Bangaluruiisc","BENGALURU","Karnataka",560012,6
"1048","KENDRIYA VIDYALAYA NAL BANGALORE","Bangalorenal","BENGALURU","Karnataka",560017,6
"1049","KENDRIYA VIDYALAYA MALLESHWARAM","Malleshwaram","BENGALURU","Karnataka",560055,6
"1050","KENDRIYA VIDYALAYA MEG &amp; CENTRE BANGALORE","Megcentre","BENGALURU","Karnataka",560042,6
"1051","KENDRIYA VIDYALAYA AFS NO.I JALAHALLI","Jalahalli","BENGALURU","Karnataka",560015,6
"1052","KENDRIYA VIDYALAYA AFS NO.II JALAHALLI","Jalahalli","BENGALURU","Karnataka",560014,6
"1053","KENDRIYA VIDYALAYA MG RLY. BANGALORE","Bangaloremgrly","BENGALURU","Karnataka",560023,6
"1054","KEDRIYA VIDYALAYA AFS YELAHANKA","Yelahanka","BENGALURU","Karnataka",560063,6
"1055","KENDRIYA VIDYALAYA CRPF YELAHANKA","Yelahankacrpf","BENGALURU","Karnataka",560064,6
"1056","KENDRIYA VIDYALAYA W&amp;AP YELAHANKA","Yelahankarwf","BENGALURU","Karnataka",560064,6
"1057","KENDRIYA VIDYALAYA NO.II BELGAUM CANTT","Belgaumcantb","BENGALURU","Karnataka",590009,6
"1058","KENDRIYA VIDYALAYA AFS SAMBRA","Sambra","BENGALURU","Karnataka",591124,6
"1059","KENDRIYA VIDYALAYA BELLARY","Bellary","BENGALURU","Karnataka",583102,6
"1060","KENDRIYA VIDYALAYA BEML NAGAR KOLAR","Bemlnagarkolar","BENGALURU","Karnataka",563115,6
"1061","KENDRIYA VIDYLAYA AFS BIDAR","Bidar","BENGALURU","Karnataka",585401,6
"1062","KENDRIYA VIDYALAYA VIJAYAPURA","Bijapur","BENGALURU","Karnataka",586102,6
"1065","KENDRIYA VIDYALAYA NDMC DONIMALAI","Donimalaindmc","BENGALURU","Karnataka",583118,6
"1071","KENDRIYA VIDYALAYA GULBARGA KALABURAGI","Gulbarga","BENGALURU","Karnataka",585102,6
"1072","KENDRIYA VIDYALAYA HASSAN","Hassan","BENGALURU","Karnataka",573201,6
"1073","KENDRIYA VIDYALAYA HOSPET","Hospet","BENGALURU","Karnataka",583225,6
"1074","KENDRIYA VIDYALAYA DHARWAD","Dharwad","BENGALURU","Karnataka",580002,6
"1075","KENDRIYA VIDYALAYA NO.I HUBLI","Hubli","BENGALURU","Karnataka",580032,6
"1076","KENDRIYA VIDYALAYA NO II HUBLI","Hubli","BENGALURU","Karnataka",580020,6
"1081","KENDRIYA VIDYALAYA NO.I MANGALORE","Mangalore","BENGALURU","Karnataka",575010,6
"1082","KENDRIYA VIDYALAYA NO.II MANGALURU","Mangalore","BENGALURU","Karnataka",575002,6
"1083","KENDRIYA VIDYALAYA MYSORE","Mysore","BENGALURU","Karnataka",570011,6
"1085","KENDRIYA VIDYALAYA RAICHUR","Raichur","BENGALURU","Karnataka",584101,6
"1086","KENDRIYA VIDYALAYA TUMKUR","Tumkur","BENGALURU","Karnataka",572106,6
"2060","KENDRIYA VIDYALAYA KARWAR","Karwar","BENGALURU","Karnataka",581308,6
"2064","KENDRIYA VIDYALAYA KODAGU","Kodagu","BENGALURU","Karnataka",571201,6
"2116","KENDRIYA VIDYALAYA NO.III BELGAUM","Belgaumcant","BENGALURU","Karnataka",590014,6
"2117","KENDRIYA VIDYALAYA BAGALKOT","Bagalkot","BENGALURU","Karnataka",587103,6
"2167","KENDRIYA VIDYALAYA KOPPAL","Koppal","BENGALURU","Karnataka",583231,6
"2168","KENDRIYA VIDYALAYA DAVANGERE","Davangere","BENGALURU","Karnataka",577589,6
"2169","KENDRIYA VIDYALAYA SHIVAMOGGA","Shimoga","BENGALURU","Karnataka",577222,6
"1501","KENDRIYA VIDYALAYA (SK UNIVERSITY) ANANTAPUR","Anantpur","HYDERABAD","Andhra Pradesh",515003,6
"1504","KENDRIYA VIDYALAYA GOOTY ANANTPUR","Gooty Anantpur","HYDERABAD","Andhra Pradesh",515401,6
"1505","KENDRIYA VIDYALAYA GUNTAKAL","Guntakal","HYDERABAD","Andhra Pradesh",515801,6
"1506","KENDRIYA VIDYALAYA GUNTUR","Guntur","HYDERABAD","Andhra Pradesh",522006,6
"1523","KENDRIYA VIDYALAYA KURNOOL","Kurnool","HYDERABAD","Andhra Pradesh",518002,6
"1524","KENDRIYA VIDYALAYA MACHHLIPATNAM","Machhlipatnam","HYDERABAD","Andhra Pradesh",521001,6
"1526","KENDRIYA VIDYALAYA (ONGC) RAJAHMUNDARY","Rajahmundary","HYDERABAD","Andhra Pradesh",533106,6
"1529","KENDRIYA VIDYALAYA AFS SURYA LANKA","Suryalanka","HYDERABAD","Andhra Pradesh",522101,6
"1530","KENDRIYA VIDYALAYA NO.I TIRUPATI","Tirupati","HYDERABAD","Andhra Pradesh",,6
"1531","KENDRIYA VIDYALAYA NO.II TIRUPATI","Tirupati","HYDERABAD","Andhra Pradesh",517506,6
"1532","KENDRIYA VIDYALAYA NO.1 VIJAYAWADA","Vijayawada","HYDERABAD","Andhra Pradesh",520011,6
"1533","KENDRIYA VIDYALAYA NO.II VIJAYAWADA","Vijayawada","HYDERABAD","Andhra Pradesh",252241,6
"2077","KENDRIYA VIDYALAYA KADAPA","Kadapa","HYDERABAD","Andhra Pradesh",516002,6
"2091","KENDRIYA VIDYALAYA ELURU","Eluru","HYDERABAD","Andhra Pradesh",534450,6
"2103","KENDRIYA VIDYALAYA VENKATAGIRI","Venkatagiri","HYDERABAD","Andhra Pradesh",524404,6
"2119","KENDRIYA VIDYALAYA ONGOLE","Ongole","HYDERABAD","Andhra Pradesh",230001,6
"2156","KENDRIYA VIDYALAYA KOTHURU","Kothuru","HYDERABAD","Andhra Pradesh",524004,6
"2289","KENDRIYA VIDYALAYA TENALI","Tenali","HYDERABAD","Andhra Pradesh",522201,6
"2318","KENDRIYA VIDYALAYA RAJAMPET","Rajampet","HYDERABAD","Andhra Pradesh",516115,6
"2325","KENDRIYA VIDYALAYA KAKINADA","Kakinada","HYDERABAD","Andhra Pradesh",533005,6
"2344","KENDRIYA VIDYALAYA SATTENAPALLI","Sattenapalli","HYDERABAD","Andhra Pradesh",522403,6
"2372","KENDRIYA VIDYALAYA RAJAMPALLI","","HYDERABAD","Andhra Pradesh",523320,6
"2402","KENDRIYA VIDYALAYA KANDUKUR TOWN","Kvkandukur","HYDERABAD","Andhra Pradesh",523105,6
"2403","KENDRIYA VIDYALAYA IRLAPADU","Irlapadu","HYDERABAD","Andhra Pradesh",522619,6
"1502","KENDRIYA VIDYALAYA INS KALINGA BHEEMUNIPATNAM","Inskalinga","HYDERABAD","Andhra Pradesh",531163,6
"1528","KENDRIYA VIDYALAYA SRIKAKULAM","Srikakulam","HYDERABAD","Andhra Pradesh",532401,6
"1534","KENDRIYA VIDYALAYA MALKAPURAM","Malkapuram","HYDERABAD","Andhra Pradesh",530005,6
"1535","KENDRIYA VIDYALAYA NAD VISHAKHAPATNAM","Vizagnad","HYDERABAD","Andhra Pradesh",530009,6
"1536","KENDRIYA VIDYALAYA NO.I NAUSENA BAGH","Nausenabagh","HYDERABAD","Andhra Pradesh",530005,6
"1537","KENDRIYA VIDYALAYA NO.II NAUSENA BAGH","Nausenabagh","HYDERABAD","Andhra Pradesh",530005,6
"1538","KENDRIYA VIDYALAYA NO.I SRIVIJAYA NAGAR","Vizianagaram","HYDERABAD","Andhra Pradesh",530007,6
"1539","KENDRIYA VIDYALAYA NO.II SRIVIJAYA NAGAR","Vizianagaram","HYDERABAD","Andhra Pradesh",530007,6
"1540","KENDRIYA VIDYALAYA STEEL PROJECT","Steelproject","HYDERABAD","Andhra Pradesh",530032,6
"1541","KENDRIYA VIDYALAYA WALTAIR","Waltair","HYDERABAD","Andhra Pradesh",530016,6
"2092","KENDRIYA VIDYALAYA VIZIANAGARAM","Vijayanagaram","HYDERABAD","Andhra Pradesh",535002,6
"1459","KENDRIYA VIDYALAYA ALONG (11 ASSAM RIFLES)","Along","TINSUKIA","Arunachal Pradesh",791001,6
"1472","KENDRIYA VIDYALAYA No. I ITANAGAR","Itanagar","TINSUKIA","Arunachal Pradesh",791110,6
"1473","KENDIRIYA VIDAYALAYA NO. II ITANAGAR","Itanagar","TINSUKIA","Arunachal Pradesh",791111,6
"1478","KENDRIYA VIDYALAYA KIMIN (9 ASSAM RIFLES)","Kimin","TINSUKIA","Arunachal Pradesh",791121,6
"1483","KENDRIYA VIDYALAYA NIRJULI (NERIST)","Nirjulinerist","TINSUKIA","Arunachal Pradesh",791109,6
"1489","KENDRIYA VIDYALAYA TENGA VALLEY","Tengavalley","TINSUKIA","Arunachal Pradesh",790116,6
"1496","KENDRIYA VIDYALAYA TAWANG","Tawang","TINSUKIA","Arunachal Pradesh",790104,6
"1884","KENDRIYA VIDYALAYA PASSIGAHT","Passigaht","TINSUKIA","Arunachal Pradesh",791102,6
"1893","KENDRIYA VIDYALAYA TEZU","Tezu","TINSUKIA","Arunachal Pradesh",792001,6
"1920","KENDRIYA VIDYALAYA ROING","Roing","TINSUKIA","Arunachal Pradesh",792110,6
"1941","KENDRIYA VIDYALAYA KHONSA","Khonsa","TINSUKIA","Arunachal Pradesh",792130,6
"1942","KENDRIYA VIDYALAYA MIAON","Miao","TINSUKIA","Arunachal Pradesh",792122,6
"2118","KENDRIYA VIDYALAYA DIRANG","Dirang","TINSUKIA","Arunachal Pradesh",790101,6
"2251","KENDRIYA VIDYALAYA TUTING","Tuting","TINSUKIA","Arunachal Pradesh",792061,6
"2304","KENDRIYA VIDYALAYA ZERO HAPOLI","Zerohapoli","TINSUKIA","Arunachal Pradesh",791120,6
"2355","KENDRIYA VIDYALAYA LONGDING","Longding","TINSUKIA","Arunachal Pradesh",792131,6
"2406","KENDRIYA VIDYALAYA DAPORIJO","Daporijo","TINSUKIA","Arunachal Pradesh",791122,6
"2421","KENDRIYA VIDYALAYA NAMSAI","Namsai","TINSUKIA","Arunachal Pradesh",792103,6
"2435","KENDRIYA VIDYALAYA HAYULIANG ANJAW","Hauliang","TINSUKIA","Arunachal Pradesh",792104,6
"1460","KENDRIYA VIDYALAYA BARPETA","Barpeta","GUWAHATI","Assam",781301,6
"1462","KENDRIYA VIDYALAYA NEW BONGAIGAON","Bongaigaon","GUWAHATI","Assam",783381,6
"1463","KENDRIYA VIDYALAYA (AFS) DIGARU","Digaru","GUWAHATI","Assam",782402,6
"1464","KENDRIYA VIDYALAYA GERUKAMUKH HE PROJECT","Gerukamukh","GUWAHATI","Assam",787035,6
"1465","KENDRIYA VIDYALAYA IOC GUWAHATI","Guwahatiioc","GUWAHATI","Assam",781020,6
"1466","KENDRIYA VIDYALAYA (CRPF) AMERIGOG","Amerigogcrpf","GUWAHATI","Assam",781023,6
"1467","KENDRIYA VIDYALAYA BORJHAR","Borjhar","GUWAHATI","Assam",781017,6
"1468","KENDRIYA VIDYALAYA KHANAPARA","Khanapara","GUWAHATI","Assam",781022,6
"1469","KENDRIYA VIDYALAYA MALIGAON","Maligaon","GUWAHATI","Assam",781011,6
"1470","KENDRIYA VIDYALAYA NARANGI","Narangi","GUWAHATI","Assam",781027,6
"1471","KENDRIYA VIDYALAYA IIT GUWAHATI","Guwahatiiit","GUWAHATI","Assam",781039,6
"1474","KENDRIYA VIDYALAYA (HPC) JAGIROAD","Jagiroadhpc","GUWAHATI","Assam",782413,6
"1475","KENDRIYA VIDYALYA (AFS) NO. I JORHAT","Jorhat","GUWAHATI","Assam",785005,6
"1476","KENDRIYA VIDYALAYA ONGC NO.II JORHAT","Jorhat","GUWAHATI","Assam",785704,6
"1477","KENDRIYA VIDYALAYA No. III JORHAT","Jorhat","GUWAHATI","Assam",785006,6
"1479","KENDRIYA VIDYALAYA KOKRAJHAR","Kokrajhar","GUWAHATI","Assam",783370,6
"1480","KENDRIYA VIDYALAYA LAKHIMPUR","Lakhimpur","GUWAHATI","Assam",787051,6
"1481","KENDRIYA VIDYALAYA MANGALDOI","Mangaldoi","GUWAHATI","Assam",784125,6
"1482","KENDRIYA VIDYALAYA MISSAMARI","Missamarinoi","GUWAHATI","Assam",784506,6
"1484","KENDRIYA VIDYALAYA NAGAON","Nagaon","GUWAHATI","Assam",782003,6
"1485","KENDRIYA VIDYALAYA MISA CANTT. NOWGAON","Misacantt","GUWAHATI","Assam",782138,6
"1486","KENDRIYA VIDYALAYA (BSF) PANBARI","Panbaribsf","GUWAHATI","Assam",783339,6
"1497","KENDRIYA VIDYALAYA LOKRA","Lokra","GUWAHATI","Assam",784102,6
"1498","KENDRIYA VIDYALAYA NO.I TEZPUR","Tezpur","GUWAHATI","Assam",784501,6
"1499","KENDRIYA VIDYALAYA AFS NO II TEZPUR","Tezpur","GUWAHATI","Assam",784104,6
"1876","KENDRIYA VIDYALAYAKHAT(CRPF) KHATI","Khatkhaticrpf","GUWAHATI","Assam",782480,6
"1858","KENDRIYA VIDYALAYA (CCI) BOKAJAN","Bokajancci","GUWAHATI","Assam",782490,6
"1867","KENDRIYA VIDYALAYA DIPHU","Diphu","GUWAHATI","Assam",782462,6
"1868","Kendriya Vidyalaya (ARC)DOOM DOOMA","Doomdoomaarc","GUWAHATI","Assam",786159,6
"1870","KENDRIYA VIDYALAYA (SSB) HAFLONG","Haflongssb","GUWAHATI","Assam",788820,6
"1880","KENDRIYA VIDYALAYA LUMDING","Lumding","GUWAHATI","Assam",782447,6
"1882","KENDRIYA VIDYALAYA BVFCL NAMRUP","Namruphfc","GUWAHATI","Assam",,6
"1887","KENDRIYA VIDYALAYA No I SIBSAGAR","Sibsagar","GUWAHATI","Assam",785640,6
"1888","KENDRIYA VIDYALAYA No II SIBSAGAR","Sibsagar","GUWAHATI","Assam",740640,6
"2076","KENDRIYA VIDYALAYA GOLAGHAT","Golaghat","GUWAHATI","Assam",785621,6
"2113","KENDRIYA VIDYALAYA GOALPARA","Goalpara","GUWAHATI","Assam",783101,6
"2164","KENDRIYA VIDYALAYA TAMULPUR","Tamulpur","GUWAHATI","Assam",781367,6
"2165","KENDRIYA VIDYALAYA UDALGURI","Udalguri","GUWAHATI","Assam",784509,6
"2166","KENDRIYA VIDYALAYA RANGIYA N.F. RAILWAY","Rangiyanfrly","GUWAHATI","Assam",781365,6
"2250","KENDRIYA VIDYALAYA TEZPUR UNIVERSITY","Tezpurnoivtu","GUWAHATI","Assam",784028,6
"2399","KENDRIYA VIDYALAYA 210 COBRA CRPF","Cobracrpf210","GUWAHATI","Assam",784116,6
"2412","KENDRIYA VIDYALAYA RANGAPARA NF RAILWAY","Rangaparanfr","GUWAHATI","Assam",784505,6
"1863","KENDRIYA VIDYALAYA (BSF)DHOLCHERA","Dholcherabsf","SILCHAR","Assam",788127,6
"1875","KENDRIYA VIDYALAYA KARIMGUNJ","Karimgunj","SILCHAR","Assam",788710,6
"1889","KENDRIYA VIDYALAYA (AFS)KUMBHIRGRAM","Kumbhigram","SILCHAR","Assam",788109,6
"1890","KENDRIYA VIDYALAYA MASIMPUR","Masimpur","SILCHAR","Assam",788025,6
"1891","KENDRIYA VIDYALAYA SILCHAR","Silchar","SILCHAR","Assam",788003,6
"1892","KENDRIYA VIDYALAYA (ONGC) SONAI ROAD","Sonairoadongc","SILCHAR","Assam",788026,6
"2275","KENDRIYA VIDYALAYA NIT","Silcharnit","SILCHAR","Assam",,6
"2333","KENDRIYA VIDYALAYA ASSAM UNIVERSITY","Silcharau","SILCHAR","Assam",788011,6
"1860","KENDRIYA VIDYALAYA CHABUA","Chabua","TINSUKIA","Assam",786102,6
"1861","KENDRIYA VIDYALAYA MOHANBARI","Mohanbari","TINSUKIA","Assam",786012,6
"1864","KENDRIYA VIDYALAYA DIBRUGARH","Dibrugarh","TINSUKIA","Assam",786003,6
"1866","KENDRIYA VIDYALAYA DINJAN","Dinjan","TINSUKIA","Assam",486189,6
"1869","KENDRIYA VIDYALAYA (OIL)DULIAJAN","Duliajanoil","TINSUKIA","Assam",786602,6
"1878","KENDRIYA VIDYALAYA LEKHA PANI","Lekhapani","TINSUKIA","Assam",786182,6
"1894","KENDRIYA VIDYALAYA TINSUKIA","Tinsukia","TINSUKIA","Assam",786125,6
"1810","KENDRIYA VIDYALAYA AINWAN","Ainwan","PATNA","Bihar",804408,6
"1813","KENDRIYA VIDYALAYA (IOC) NO.II BARAUNI","Barauniioc","PATNA","Bihar",851117,6
"1814","KENDRIYA VIDYALAYA GARHARA","Garhara","PATNA","Bihar",851126,6
"1815","KENDRIYA VIDYALAYA BETIAH","Betiah","PATNA","Bihar",845438,6
"1816","KENDRIYA VIDYALAYA (AFS) BIHATA","Bihata","PATNA","Bihar",801103,6
"1817","KENDRIYA VIDYALAYA BUXAR","Buxar","PATNA","Bihar",802101,6
"1819","KENDRIYA VIDYALAYA (AFS) NO I DARBHANGA","Darbhanga","PATNA","Bihar",846005,6
"1821","KENDRIYA VIDYALAYA No. I GAYA","Gaya","PATNA","Bihar",823002,6
"1822","KENDRIYA VIDYALAYA No. II GAYA","Gaya","PATNA","Bihar",823005,6
"1826","KENDRIYA VIDYALAYA HAJIPUR","Hazipur","PATNA","Bihar",,6
"1827","KENDRIYA VIDYALAYA JAMALPUR","Jamalpur","PATNA","Bihar",811214,6
"1828","KENDRIYA VIDYALAYA JAWAHAR NAGAR","Jawaharnagar","PATNA","Bihar",843331,6
"1829","KENDRIYA VIDYALAYA (NTPC) KAHAL GAON","Kahalgaonntpc","PATNA","Bihar",813214,6
"1830","KENDRIYA VIDYALAYA KATIHAR","Katihar","PATNA","Bihar",854105,6
"1831","KENDRIYA VIDYALAYA KHAGARIA","Khagaria","PATNA","Bihar",851205,6
"1832","KENDRIYA VIDYALAYA (BSF) KISHAN GANJ","Kishanganjbsf","PATNA","Bihar",855107,6
"1833","KENDRIYA VIDYALAYA LAKHISA RAI","Lakhisarai","PATNA","Bihar",811311,6
"1835","KENDRIYA VIDYALAYA MASHRAK","Mashrak","PATNA","Bihar",841417,6
"1836","KENDRIYA VIDYALAYA MOTIHARI","Motihari","PATNA","Bihar",845401,6
"1837","KENDRIYA VIDYALAYA (CRPF)MOKAM GHAT","Mokamghatcrpf","PATNA","Bihar",803303,6
"1839","KENDRIYA VIDYALAYA MUZZAFFARPUR","Muzzaffarpurs1","PATNA","Bihar",842002,6
"1840","KENDRIYA VIDYALAYA DANAPUR CANTT","Danapurcants1","PATNA","Bihar",801503,6
"1841","KENDRIYA VIDYALAYA KHAGAUL","Khagol","PATNA","Bihar",801105,6
"1843","KENDRIYA VIDYALAYA NO.II BAILEY ROAD PATNA","Patna","PATNA","Bihar",800014,6
"1844","KENDRIYA VIDYALAYA PUSA-RAU","Pusarau","PATNA","Bihar",848125,6
"1846","KENDRIYA VIDYALAYA SAHARSA","Saharsa","PATNA","Bihar",852201,6
"1847","KENDRIYA VIDYALAYA SAMASTIPUR","Samastipur","PATNA","Bihar",848101,6
"1849","KENDRIYA VIDYALAYA SONPUR","Sonpur","PATNA","Bihar",841101,6
"1938","KENDRIYA VIDYALAYA CHAPRA","Chapra","PATNA","Bihar",841301,6
"1939","KENDRIYA VIDYALAYA GOPALGANJ","Gopalganj","PATNA","Bihar",841428,6
"1945","KENDRIYA VIDYALAYA BANKA","Banka","PATNA","Bihar",813102,6
"1946","KENDRIYA VIDYALAYA NO 1 BARAUNI","Barauninoi","PATNA","Bihar",851115,6
"1947","KENDRIYA VIDYALAYA NO II DARBHANGA","Darbhanga","PATNA","Bihar",846005,6
"1948","KENDRIYA VIDYALAYA SIWAN","Siwan","PATNA","Bihar",841226,6
"2062","KENDRIYA VIDYALAYA ARAH","Arah","PATNA","Bihar",802302,6
"2063","KENDRIYA VIDYALAYA PURNIA","Purnia","PATNA","Bihar",854303,6
"2109","KENDRIYA VIDYALAYA OF NALANDA","Nalandaof","PATNA","Bihar",803121,6
"2125","KENDRIYA VIDYALAYA ARARIA","Araria","PATNA","Bihar",854312,6
"2145","KENDRIYA VIDYALAYA SHEOHAR","Sheohar","PATNA","Bihar",843329,6
"2242","KENDRIYA VIDYALAYA AURANGABAD","Aurangabad","PATNA","Bihar",824102,6
"2243","KENDRIYA VIDYALAYA HARNAUT","Harnaut","PATNA","Bihar",803110,6
"2244","KENDRIYA VIDYALAYA CRPF JHAPHAN","Jhaphancrpf","PATNA","Bihar",842004,6
"2258","KENDRIYA VIDYALAYA CAST WHEEL PLANT BELA","Saranbelacwp","PATNA","Bihar",841221,6
"2265","KENDRIYA VIDYALAYA MAHARAJGANJ","Maharajganj","PATNA","Bihar",841233,6
"2291","KENDRIYA VIDYALAYA SASARAM","Sasaram","PATNA","Bihar",,6
"2302","KENDRIYA VIDYALAYA JHAJHA","Jhajha","PATNA","Bihar",811308,6
"2378","KENDRIYA VIDYALAYA NABINAGAR NPGCL","Nabinagarnpgcl","PATNA","Bihar",824303,6
"2424","KENDRIYA VIDYALAYA IIT PATNA","Iitpatna","PATNA","Bihar",801103,6
"1305","KENDRIYA VIDYALAYA SECTOR- 47 CHANDIGARH","","CHANDIGARH","Chandigarh",160047,6
"1574","KENDRIYA VIDYALAYA (SECL) NO.III KORBA","Korba","RAIPUR","Chhattisgarh",495454,6
"1542","KENDRIYA VIDYALAYA AMBIKA PUR","Ambikapur","RAIPUR","Chhattisgarh",,6
"1543","KENDRIYA VIDYALAYA (BIOP)BACHELI","Bachelibiop","RAIPUR","Chhattisgarh",,6
"1544","KENDRIYA VIDYALAYA (SECL)BAIKUNTPUR","Baikuntpur","RAIPUR","Chhattisgarh",497335,6
"1546","KENDRIYA VIDYALAYA BHILAI","Bhilai","RAIPUR","Chhattisgarh",490025,6
"1547","KENDRIYA VIDYALAYA DURG","Durg","RAIPUR","Chhattisgarh",491001,6
"1578","KENDRIYA VIDYALAYA MANENDRAGARH","Manendragarh","RAIPUR","Chhattisgarh",497442,6
"1548","KENDRIYA VIDYALAYA BILASPUR","Bilaspur","RAIPUR","Chhattisgarh",495004,6
"1550","KENDRIYA VIDYALAYA (SECL)CHIRI MIRI","Chirimirisecl","RAIPUR","Chhattisgarh",497557,6
"1552","KENDRIYA VIDYALAYA DANTEWADA","Dantewada","RAIPUR","Chhattisgarh",494449,6
"1555","KENDRIYA VIDYALAYA DUNGARGARH","Dungargarh","RAIPUR","Chhattisgarh",491445,6
"1564","KENDRIYA VIDYALAYA JAGDALPUR","Jagdalpur","RAIPUR","Chhattisgarh",494001,6
"1566","KENDRIYA VIDYALAYA JASHPUR","Jashpur","RAIPUR","Chhattisgarh",496331,6
"1568","KENDRIYA VIDYALAYA (SECL) JHAGRAKHAND","Jhagrakhand","RAIPUR","Chhattisgarh",497446,6
"1571","KENDRIYA VIDYALAYA (BIOP) KIRANDUL","Kirandulbiop","RAIPUR","Chhattisgarh",494556,6
"1573","KENDRIYA VIDYALAYA No II (NTPC) KORBA","Korba","RAIPUR","Chhattisgarh",495450,6
"1575","KENDRIYA VIDYALAYA (NTPC)(BCPP) NO.IV KORBA","Korba","RAIPUR","Chhattisgarh",495450,6
"1576","KENDRIYA VIDYALAYA MAHASUMAND","Mahasumand","RAIPUR","Chhattisgarh",,6
"1581","KENDRIYA VIDYALAYA RAIGARH","Raigarh","RAIPUR","Chhattisgarh",496001,6
"1582","KENDRIYA VIDYALAY NO I RAIPUR","Raipurnoi","RAIPUR","Chhattisgarh",492008,6
"1583","KENDRIYA VIDYALAYA NO. II RAIPUR","Raipurnoii","RAIPUR","Chhattisgarh",,6
"2080","KENDRIYA VIDYALAYA DHAMTARI","Dhamtari","RAIPUR","Chhattisgarh",493773,6
"2081","KENDRIYA VIDYALAYA KANKER","Kanker","RAIPUR","Chhattisgarh",,6
"2152","KENDRIYA VIDYALAYA KHAIRAGARH","Khairagarh","RAIPUR","Chhattisgarh",491881,6
"2236","KENDRIYA VIDYALAYA CISF BHILAI","Bhilaicisf","RAIPUR","Chhattisgarh",491107,6
"2264","KENDRIYA VIDYALAYA RAJNANDGAON","Rajnandgaon","RAIPUR","Chhattisgarh",491441,6
"2288","KENDRIYA VIDYALAYA JANJGIR","Janjgir","RAIPUR","Chhattisgarh",495668,6
"2313","KENDRIYA VIDYALAYA NARAYANPUR","Narayanpur","RAIPUR","Chhattisgarh",494661,6
"2351","KENDRIYA VIDYALAYA BIJAPUR","Bijapurrai","RAIPUR","Chhattisgarh",494444,6
"2352","KENDRIYA VIDYALAYA SUKMA","Sukma","RAIPUR","Chhattisgarh",494111,6
"2357","KENDRIYA VIDYALAYA NAYA RAIPUR","Nayaraipur","RAIPUR","Chhattisgarh",492015,6
"2364","KENDRIYA VIDYALAYA KHURUD","Kurud","RAIPUR","Chhattisgarh",493663,6
"2365","KENDRIYA VIDYALAYA SARAIPALLI","Saraipali","RAIPUR","Chhattisgarh",493558,6
"2369","KENDRIYA VIDYALAYA MAHARAJPUR KAWARDHA","Kawardha","RAIPUR","Chhattisgarh",491995,6
"2396","KENDRIYA VIDYALAYA CRPF BILASPUR","Crpfbilaspur","RAIPUR","Chhattisgarh",,6
"2423","KENDRIYA VIDYALAYA KONDAGAON","Kondagaon","RAIPUR","Chhattisgarh",,6
"1017","KENDRIYA VIDYALAYA DIU","Diuadi","AHMEDABAD","Dadra and Nagar Haveli and Daman and Diu",362520,6
"1790","KENDRIYA VIDYALAYA CECRI KARAIKUDI","Karaikudicecri","CHENNAI","Tamil Nadu",630006,6
"1794","KENDRIYA VIDYALAYA NO I MADURAI","Madurai","CHENNAI","Tamil Nadu",625002,6
"1796","KENDRIYA VIDYALAYA MANDAPAM CAMP","Mandapamcamp","CHENNAI","Tamil Nadu",623520,6
"1803","KENDRIYA VIDYALAYA NO.I TIRUCHIRAPALLI","Trichy","CHENNAI","Tamil Nadu",620016,6
"1804","KENDRIYA VIDYALAYA NO.II HAPP TRICHY-25","Trichy","CHENNAI","Tamil Nadu",620025,6
"1809","KENDRIYA VIDYALAYA INS VIJAYANARAYANAM","Vijainarayanam","CHENNAI","Tamil Nadu",627119,6
"1936","KENDRIYA VIDYALAYA NO II MADURAI","Madurai","CHENNAI","Tamil Nadu",625005,6
"1937","KENDRIYA VIDYALAYA RAMESWARAM","Rameshwaram","CHENNAI","Tamil Nadu",623526,6
"2096","KENDRIYA VIDYALAYA THIRUVANNAMALAI","Thiruvannamalai","CHENNAI","Tamil Nadu",606603,6
"2107","KENDRIYA VIDYALAYA SIVAGANGA","Sivaganga","CHENNAI","Tamil Nadu",630561,6
"2108","KENDRIYA VIDYALAYA AFS THANJAVUR","Tanjavur","CHENNAI","Tamil Nadu",613005,6
"2121","KENDRIYA VIDYALAYA DHARMAPURI","Dharmpuri","CHENNAI","Tamil Nadu",636704,6
"2127","KENDRIYA VIDYALAYA GANDHIGRAM","Dindugal","CHENNAI","Tamil Nadu",624302,6
"2148","KENDRIYA VIDYALAYA NAGARCOIL","Nagarcoil","CHENNAI","Tamil Nadu",629004,6
"2192","KENDRIYA VIDYALAYA VIRUDUNAGAR","Virudunagar","CHENNAI","Tamil Nadu",626109,6
"2193","KENDRIYA VIDYALAYA PERAMBALUR","Perambalur","CHENNAI","Tamil Nadu",621212,6
"2259","KENDRIYA VIDYALAYA NEYVELI LIGNITE CORPORATION","Cuddalorenlc","CHENNAI","Tamil Nadu",607801,6
"2280","KENDRIYA VIDYALAYA CENTRAL UNIVERSITY OF TAMILNADU","Thiruvarur","CHENNAI","Tamil Nadu",788014,6
"2319","KENDRIYA VIDYALAYA GOLDEN ROCK","Tiruchirapally","CHENNAI","Tamil Nadu",620004,6
"2413","KENDRIYA VIDYALAYA UDUMALPET","Udumalpet","CHENNAI","Tamil Nadu",642126,6
"2432","KENDRIYA VIDYALAYA IDAYAPATTI","Pidayapatti","CHENNAI","Tamil Nadu",822110,6
"2434","KENDRIYA VIDYALAYA ITBP ILLUPPAIKUDI SIVAGANGAI","Shivgangai","CHENNAI","Tamil Nadu",630562,6
"1503","KENDRIYA VIDYALAYA GHATKESAR NUCLEAR FUEL COMPLEX.","Ghatkesarnfc","HYDERABAD","Telangana",501301,6
"1507","KENDRIYA VIDYALAYA GACHIBAWLI","Gachibowli","HYDERABAD","Telangana",500032,6
"1508","KENDRIYA VIDYALAYA (AFS) BEGUMPET","Begumpet","HYDERABAD","Telangana",500011,6
"1509","KENDRIYA VIDYALAYA CRPF GC BARKAS","Hyderabadcrpf","HYDERABAD","Telangana",,6
"1510","KENDRIYA VIDYALAYA (AFA) NO.I DUNDIGAL","Dundigal","HYDERABAD","Telangana",500043,6
"1511","KENDRIYA VIDYALAYA No II DUNDIGAL","Dundigal","HYDERABAD","Telangana",500043,6
"1512","KENDRIYA VIDYALAYA No I GOLCONDA","Golconda","HYDERABAD","Telangana",500008,6
"1513","KENDRIYA VIDYALAYA NO.II GOLCONDA","Golconda","HYDERABAD","Telangana",500008,6
"1514","KENDRIYA VIDYALAYA (DRDO)KANCHAN BAGH","Drdokanchanbagh","HYDERABAD","Telangana",500058,6
"1515","KENDRIYA VIDYALAYA (NPA) SVP","Hyderabadnpasvp","HYDERABAD","Telangana",500052,6
"1516","KENDRIYA VIDYALAYA (SOI) NO.I UPPAL","Uppal","HYDERABAD","Telangana",500039,6
"1517","KENDRIYA VIDYALAYA UPPAL NO.II(SOI)","Uppal","HYDERABAD","Telangana",500039,6
"1518","KENDRIYA VIDYALAYA SECUNDERABAD. BOLARUM","Bolarum","HYDERABAD","Telangana",500087,6
"1519","KENDRIYA VIDYALAYA SECUNDERABAD. BOWENPALLY","Bowenpally","HYDERABAD","Telangana",500011,6
"1520","KENDRIYA VIDYALAYA(AFS) HAKIMPET SECUNDERABAD","Fshakimpet","HYDERABAD","Telangana",500014,6
"1521","KENDRIYA VIDYALAYA PICKET SECUNDERABAD","Picket","HYDERABAD","Telangana",,6
"1522","KENDRIYA VIDYALAYA TRIMULGHERY SECUNDERABAD","Trimulghery","HYDERABAD","Telangana",500015,6
"1525","KENDRIYA VIDYALAYA (OF) MEDAK","Medakof","HYDERABAD","Telangana",502205,6
"1527","KENDRIYA VIDYALAYA (NTPC) RAMAGUNDAM","Ramagundam","HYDERABAD","Telangana",505215,6
"2008","KENDRIYA VIDYALAYA ADILABAD","Adilabad","HYDERABAD","Telangana",504001,6
"2078","KENDRIYA VIDYALAYA KHAMMAM","Khammam","HYDERABAD","Telangana",507003,6
"2079","KENDRIYA VIDYALAYA WARANGAL","Warrangal","HYDERABAD","Telangana",506003,6
"2153","KENDRIYA VIDYALAYA MAHABUBNAGAR","Mahabubnagar","HYDERABAD","Telangana",,6
"2247","KENDRIYA VIDYALAYA KARIM NAGAR","Karimnagar","HYDERABAD","Telangana",505527,6
"2279","KENDRIYA VIDYALAYA HYDERABAD (CU)","Hyderabadcu","HYDERABAD","Telangana",500046,6
"2293","KENDRIYA VIDYALAYA MAHABUBABAD","Mahbubabad","HYDERABAD","Telangana",506101,6
"2305","KENDRIYA VIDYALAYA SIRCILLA","Siricila","HYDERABAD","Telangana",505301,6
"2308","KENDRIYA VIDYALAYA BODHAN TOWN","Bodhantown","HYDERABAD","Telangana",503180,6
"2309","KENDRIYA VIDYALAYA JHARASANGAM MEDAK","Jharasangam","HYDERABAD","Telangana",502246,6
"2329","KENDRIYA VIDYALAYA MANCHERIAL","Mancherial","HYDERABAD","Telangana",504208,6
"2373","KENDRIYA VIDYALAYA BHONGIR","Bhongir","HYDERABAD","Telangana",508116,6
"2379","KENDRIYA VIDYALAYA NIZAMABAD","Nizamabad","HYDERABAD","Telangana",503003,6
"2388","KENDRIYA VIDYALAYA SIDDIPET","Siddipet","HYDERABAD","Telangana",502107,6
"2155","KENDRIYA VIDYALAYA NALGONDA","Nalgonda","HYDERABAD","Telangana",508001,6
"2287","KENDRIYA VIDYALAYA MIRYALAGUDA","Miryalguda","HYDERABAD","Telangana",508207,6
"1854","KENDRIYA VIDYALAYA (KUNJBAN)NO.I AGARTALA","Agartala","SILCHAR","Tripura",799010,6
"1855","KENDRIYA VIDYALAYA (ONGC) NO.II AGARTALA","Agartala","SILCHAR","Tripura",799014,6
"1857","KENDRIYA VIDYALAYA (BSF) BAGAFA","Bagafabsf","SILCHAR","Tripura",799144,6
"1874","KENDRIYA VIDYALAYA KAILASHAHAR","Kailashahar","SILCHAR","Tripura",799282,6
"1883","KENDRIYA VIDYALAYA (BSF) PANISAGAR","Panisagarbsf","SILCHAR","Tripura",799260,6
"2094","KENDRIYA VIDYALAYA DHALAI","Dhalai","SILCHAR","Tripura",799289,6
"2206","KENDRIYA VIDYALAYA NIT AGARTALA","Agartalanit","SILCHAR","Tripura",799046,6
"2207","KENDRIYA VIDYALAYA GC CRPF AGARTALA","Agartalacrpf","SILCHAR","Tripura",799012,6
"2208","KENDRIYA VIDYALAYA BSF TALIAMURA. KHASIAMANGAL","Taliamurabsf","SILCHAR","Tripura",799205,6
"2440","KENDRIYA VIDYALAYA BSF GOKULNAGAR","Gokulnagar","SILCHAR","Tripura",342011,6
"1357","KENDRIYA VIDYALAYA AFS CHANDI NAGAR","Bagpat","VARANASI","Uttar Pradesh",250615,6
"1379","KENDRIYA VIDYALAYA DL MEERUT CANTT","Meerutcantdl","AGRA","Uttar Pradesh",250001,6
"1380","KENDRIYA VIDYALAYA PL MEERUT CANTT","Meerutcantpl","AGRA","Uttar Pradesh",250001,6
"1381","KENDRIYA VIDYALAYA SL MEERUT CANTT","Meerutcantsl","AGRA","Uttar Pradesh",250001,6
"1382","KENDRIYA VIDYALAYA NO. I MORADABAD","Moradabad","AGRA","Uttar Pradesh",244001,6
"1385","KENDRIYA VIDYALAYA MUZAFFAR NAGAR","Muzaffarnagar","AGRA","Uttar Pradesh",251001,6
"1390","KENDRIYA VIDYALAYA CRPF RAMPUR","Rampurcrpf","AGRA","Uttar Pradesh",,6
"1395","KENDRIYA VIDYALAYA AFS SARSAWA","Sarsawa","AGRA","Uttar Pradesh",247232,6
"1400","KENDRIYA VIDYALAYA BABUGARH CANTT.","Babugarhcant","AGRA","Uttar Pradesh",245201,6
"1402","KENDRIYA VIDYALAYA NTPC DADRI","Dadrintpc","AGRA","Uttar Pradesh",201008,6
"1421","KENDRIYA VIDYALAYA NO.I HINDON","Hindon","AGRA","Uttar Pradesh",201004,6
"1422","KENDRIYA VIDYALAYA NO.II HINDON","Hindon","AGRA","Uttar Pradesh",201004,6
"1431","KENDRIYA VIDYALAYA NOIDA","Noida","AGRA","Uttar Pradesh",201301,6
"1452","KENDRIYA VIDYALAYA GHAZIABAD","Vkvgaziabad","AGRA","Uttar Pradesh",201002,6
"1453","KENDRIYA VIDYALAYA GREATER NOIDA","Greaternoida","AGRA","Uttar Pradesh",201315,6
"1455","KENDRIYA VIDYALAYA MURAD NAGAR","Muradnagar","AGRA","Uttar Pradesh",201206,6
"1704","KENDRIYA VIDYALAYA (AFS) NO.I AGRA CANTT","Agracantt","AGRA","Uttar Pradesh",282008,6
"1705","KENDRIYA VIDYALAYA NO.II AGRA CANTT","Agracantt","AGRA","Uttar Pradesh",282001,6
"1706","KENDRIYA VIDYALAYA NO.III AGRA CANTT","Agracantt","AGRA","Uttar Pradesh",282001,6
"1707","KENDRIYA VIDYALAYA ALIGARH","Aligarh","AGRA","Uttar Pradesh",202001,6
"1716","KENDRIYA VIDYALAYA BABINA CANTT","Babinacant","AGRA","Uttar Pradesh",284401,6
"1721","KENDRIYA VIDYALAYA BULANDSHAHAR","Bulandshahar","AGRA","Uttar Pradesh",203001,6
"1726","KENDRIYA VIDYALAYA OEF HAZARATPUR","Hazaratpuroef","AGRA","Uttar Pradesh",283103,6
"1728","KENDRIYA VIDYALAYA NO. I JHANSI CANTT","Jhansicant","AGRA","Uttar Pradesh",,6
"1729","KENDRIYA VIDYALAYA NO. II JHANSI CANTT","Jhansicant","AGRA","Uttar Pradesh",284003,6
"1730","KENDRIYA VIDYALAYA NO. III JHANSI CANTT","Jhansicant","AGRA","Uttar Pradesh",284003,6
"1750","KENDRIYA VIDYALAYA MRP MATHURA","Mathuramrp","AGRA","Uttar Pradesh",281006,6
"1751","KENDRIYA VIDYALAYA MATHURA BAAD","Mathurabaad","AGRA","Uttar Pradesh",281006,6
"1752","KENDRIYA VIDYALAYA MATHURA CANTT","Mathuracant","AGRA","Uttar Pradesh",281001,6
"1756","KENDRIYA VIDYALAYA TALBEHAT","Talbehat","AGRA","Uttar Pradesh",284125,6
"2186","KENDRIYA VIDYALAYA ETAH","Etah","AGRA","Uttar Pradesh",207001,6
"2187","KENDRIYA VIDYALAYA MAHOBA","Mahoba","AGRA","Uttar Pradesh",210427,6
"2188","KENDRIYA VIDYALAYA HATHRAS","Hathras","AGRA","Uttar Pradesh",204101,6
"2256","KENDRIYA VIDYALAYA ETAWA","Etawa","AGRA","Uttar Pradesh",206001,6
"2257","KENDRIYA VIDYALAYA LALITPUR","Lalitpur","AGRA","Uttar Pradesh",284403,6
"2387","KENDRIYA VIDYALAYA BAOLI BAGHPAT","Baoli","AGRA","Uttar Pradesh",,6
"2389","KENDRIYA VIDYALAYA SURAJPUR","Cisfsurajpur","AGRA","Uttar Pradesh",201306,6
"2417","KENDRIYA VIDYALAYA RAILWAY IDGAH AGRA","Railwayidgah","AGRA","Uttar Pradesh",282001,6
"1350","KENDRIYA VIDYALAYA (AFS) BAREILLY","Bareilly","LUCKNOW","Uttar Pradesh",243002,6
"1351","KENDRIYA VIDYALAYA (ASC)BAREILLY","Bareillyjla","LUCKNOW","Uttar Pradesh",243001,6
"1352","KENDRIYA VIDYALAYA (JRC) BAREILLY","Bareillyjrc","LUCKNOW","Uttar Pradesh",,6
"1353","KENDRIYA VIDYALAYA (IFFCO) AONLA BAREILLY","Bareillyiffco","LUCKNOW","Uttar Pradesh",243403,6
"1354","KENDRIYA VIDYALAYA (NER) IZZAT NAGAR","Bareillyner","LUCKNOW","Uttar Pradesh",243122,6
"1355","KENDRIYA VIDYALAYA (IVRI) IZZAT NAGAR BAREILLY","Bareillyivri","LUCKNOW","Uttar Pradesh",243122,6
"1396","KENDRIYA VIDYALAYA NO.1 SHAHJAHANPUR CANTT","Shahjahanpur","LUCKNOW","Uttar Pradesh",242001,6
"1397","KENDRIYA VIDYALAYA (OCF) NO.II SHAHJAHANPUR","Shahjahanpur","LUCKNOW","Uttar Pradesh",226010,6
"1717","KENDRIYA VIDYALAYA AFS BAKSHI KA TALAB","Bkt","LUCKNOW","Uttar Pradesh",226201,6
"1718","KENDRIYA VIDYALAYA BALRAMPUR","Balrampur","LUCKNOW","Uttar Pradesh",271201,6
"1719","KENDRIYA VIDYALAYA BARABANKI","Barabanki","LUCKNOW","Uttar Pradesh",225001,6
"1722","KENDRIYA VIDYALAYA (NTPC) DIBYAPUR","Dibiyapur","LUCKNOW","Uttar Pradesh",206244,6
"1723","KENDRIYA VIDYALAYA FAIZABAD CANTT","Faizabadcantt","LUCKNOW","Uttar Pradesh",224001,6
"1724","KENDRIYA VIDYALAYA FATEH GARH","Fatehgarh","LUCKNOW","Uttar Pradesh",209601,6
"1727","KENDRIYA VIDYALAYA (BHEL) JAGDISHPUR","Jagdishpurbhel","LUCKNOW","Uttar Pradesh",227817,6
"1731","KENDRIYA VIDYALAYA (IIT) KANPUR","Kanpuriit","LUCKNOW","Uttar Pradesh",208016,6
"1732","KENDRIYA VIDYALAYA KANPUR CANTT","Kanpurcantt","LUCKNOW","Uttar Pradesh",208004,6
"1733","KENDRIYA VIDYALAYA NO.I ARMAPUR KANPUR","Armapur","LUCKNOW","Uttar Pradesh",208009,6
"1734","KENDRIYA VIDYALAYA NO.II ARMAPUR KANPUR","Armapur","LUCKNOW","Uttar Pradesh",208009,6
"1735","KENDRIYA VIDYALAYA NO.I CHAKERI KANPUR","Chakeri","LUCKNOW","Uttar Pradesh",,6
"1736","KENDRIYA VIDYALAYA NO.II CHAKERI","Chakeri","LUCKNOW","Uttar Pradesh",208008,6
"1737","KENDRIYA VIDYALAYA NO.III CHAKERI","Chakeri","LUCKNOW","Uttar Pradesh",208008,6
"1738","KENDRIYA VIDYALAYA OEF Taigoar Road KANPUR","Kanpuroef","LUCKNOW","Uttar Pradesh",208004,6
"1739","KENDRIYA VIDYALAYA KANPUR RAKSHAVIHAR","Rakshavihar","LUCKNOW","Uttar Pradesh",208013,6
"1740","KENDRIYA VIDYALAYA (AMC) LUCKNOW","Lucknowamc","LUCKNOW","Uttar Pradesh",226002,6
"1741","KENDRIYA VIDYALAYA IIM CAMPUS","Iimcampus","LUCKNOW","Uttar Pradesh",226013,6
"1742","KENDRIYA VIDYALAYA RDSO LUCKNOW","Lucknowrdso","LUCKNOW","Uttar Pradesh",226011,6
"1743","KENDRIYA VIDYALAYA SGPGI LUCKNOW","Lucknowsgpgi","LUCKNOW","Uttar Pradesh",226014,6
"1744","KENDRIYA VIDYALAYA ALIGANJ","Aliganj","LUCKNOW","Uttar Pradesh",226024,6
"1745","KENDRIYA VIDYALAYA LUCKNOW CANTT","Lucknowcant","LUCKNOW","Uttar Pradesh",226002,6
"1746","KENDRIYA VIDYALAYA Gomtinagar","Gomtinagar","LUCKNOW","Uttar Pradesh",391290,6
"1747","KENDRIYA VIDYALAYA CRPF (BIJNOUR)","Lucknowcrpf","LUCKNOW","Uttar Pradesh",226002,6
"1748","KENDRIYA VIDYALAYA (AFS) MEMAURA","Memaura","LUCKNOW","Uttar Pradesh",,6
"1754","KENDRIYA VIDYALAYA RAE BARELI","Raebareli","LUCKNOW","Uttar Pradesh",229001,6
"1755","KENDRIYA VIDYALAYA SITAPUR","Sitapur","LUCKNOW","Uttar Pradesh",,6
"1757","KENDRIYA VIDYALAYA UNNAO","Unnao","LUCKNOW","Uttar Pradesh",209801,6
"2083","KENDRIYA VIDYALAYA BADAUN","Badaun","LUCKNOW","Uttar Pradesh",243601,6
"2105","KENDRIYA VIDYALAYA MATI AKABARPUR","Matiakbarpur","LUCKNOW","Uttar Pradesh",209311,6
"2122","KENDRIYA VIDYALAYA PILIBHIT","Pilibhit","LUCKNOW","Uttar Pradesh",,6
"2143","KENDRIYA VIDYALAYA LAKHIMPUR KHERI","Lakhimpurkheri","LUCKNOW","Uttar Pradesh",262701,6
"2283","KENDRIYA VIDYALAYA SHIVGARH RAEBARELI","Shivgarh","LUCKNOW","Uttar Pradesh",229308,6
"2290","KENDRIYA VIDYALAYA HARDOI","Hardoi","LUCKNOW","Uttar Pradesh",241001,6
"2312","KENDRIYA VIDYALAYA SHRAWASTI","Shrawasti","LUCKNOW","Uttar Pradesh",271831,6
"2367","KENDRIYA VIDYALAYA M.C.F. RAEBREILLY","Mcflalganj","LUCKNOW","Uttar Pradesh",229206,6
"2420","KENDRIYA VIDYALAYA SSB CAMPUS GADANIA PALIA KALAN","Ssbgadania","LUCKNOW","Uttar Pradesh",262902,6
"2425","KENDRIYA VIDYALAYA 59 BN SSB NANPARA BAHRAICH","59ssbnanpara","LUCKNOW","Uttar Pradesh",271865,6
"2428","KENDRIYA VIDYALAYA MADHUPURI","Madhupuri","LUCKNOW","Uttar Pradesh",,6
"2429","KENDRIYA VIDYALAYA SUMERPUR","Sumerpur","LUCKNOW","Uttar Pradesh",210502,6
"1708","KENDRIYA VIDYALAYA AFS BAMRAULI","Bamrauli","VARANASI","Uttar Pradesh",211012,6
"1709","KENDRIYA VIDYALAYA COD CHHEOKI","Allahabadchheoki","VARANASI","Uttar Pradesh",212105,6
"1710","KENDRIYA VIDYALAYA MANAURI ALLAHABAD","Allahabadmanauri","VARANASI","Uttar Pradesh",212212,6
"1711","KENDRIYA VIDYALAYA NAINI","Nainiallahabad","VARANASI","Uttar Pradesh",211010,6
"1712","KENDRIYA VIDYALAYA NEW CANTT ALLAHABAD","Newcantts1","VARANASI","Uttar Pradesh",211001,6
"1713","KENDRIYA VIDYALAYA OLD CANTT ALLAHABAD","Oldcanttald","VARANASI","Uttar Pradesh",211004,6
"1714","KENDRIYA VIDYALAYA IIIT ALLAHABAD","Allahabadiiit","VARANASI","Uttar Pradesh",211012,6
"1715","KENDRIYA VIDYALAYA AMHAT SULTANPUR","Amhatsultanpur","VARANASI","Uttar Pradesh",228001,6
"1720","KENDRIYA VIDYALAYA BASTI","Basti","VARANASI","Uttar Pradesh",272002,6
"1725","KENDRIYA VIDYALAYA GONDA","Gonda","VARANASI","Uttar Pradesh",271002,6
"1749","KENDRIYA VIDYALAYA (ITI) MANKAPUR","Mankapuriti","VARANASI","Uttar Pradesh",271308,6
"1753","KENDRIYA VIDYALAYA (IFFCO)PHULPUR","Phulpuriffco","VARANASI","Uttar Pradesh",212404,6
"1811","KENDRIYA VIDYALAYA.AZAMGARH","Azamgarh","VARANASI","Uttar Pradesh",276001,6
"1812","KENDRIYA VIDYALAYA BALLIYA","Balliya","VARANASI","Uttar Pradesh",277001,6
"1818","KENDRIYA VIDYALAYA CHOPAN","Chopan","VARANASI","Uttar Pradesh",231205,6
"1823","KENDRIYA VIDYALAYA GHAZIPUR","Ghazipur","VARANASI","Uttar Pradesh",233001,6
"1824","KENDRIYA VIDYALAYA No.I GORAKHPUR","Gorakhpurnoi","VARANASI","Uttar Pradesh",273002,6
"1825","KENDRIYA VIDYALAYA NO. II GORAKHPUR","Gorakhpur","VARANASI","Uttar Pradesh",273007,6
"1834","KENDRIYA VIDYALAYA MAU","Maubsb","VARANASI","Uttar Pradesh",275101,6
"1845","KENDRIYA VIDYALAYA (NTPC) RIHAND NAGAR","Rihandnagarntpc","VARANASI","Uttar Pradesh",231223,6
"1848","KENDRIYA VIDYALAYA NTPC SHAKTINAGAR","Shaktinagarntpc","VARANASI","Uttar Pradesh",231222,6
"1850","KENDRIYA VIDYALAYA (BHU)VARANASI","Varanasibhu","VARANASI","Uttar Pradesh",221005,6
"1851","KENDRIYA VIDYALAYA (DLW) VARANASI","Varanasidlw","VARANASI","Uttar Pradesh",221004,6
"1852","KENDRIYA VIDYALAYA VARANASI CANTT","Varanasicant","VARANASI","Uttar Pradesh",221002,6
"1853","KENDRIYA VIDYALAYA NO.IV VARANASI","Varanasi","VARANASI","Uttar Pradesh",221004,6
"2185","KENDRIYA VIDYALAYA CRPF ALLAHABAD","Phaphamaucrpf","VARANASI","Uttar Pradesh",211022,6
"2245","KENDRIYA VIDYALAYA CHERO SALEMPUR","Cherosalempur","VARANASI","Uttar Pradesh",274808,6
"2255","KENDRIYA VIDYALAYA CHITRAKOOT","Chitrakoot","VARANASI","Uttar Pradesh",210205,6
"2285","KENDRIYA VIDYALAYA GANGRANI","Gangrani","VARANASI","Uttar Pradesh",274304,6
"2323","KENDRIYA VIDYALAYA SIDHARTH NAGAR","Siddharthnagar","VARANASI","Uttar Pradesh",272207,6
"2393","KENDRIYA VIDYALAYA BHADOHI","Bhadohi","VARANASI","Uttar Pradesh",221310,6
"2395","KENDRIYA VIDYALAYA AAYER VARANASI","Aayervaransi","VARANASI","Uttar Pradesh",221202,6
"1347","KENDRIYA VIDYALAYA ALMORA","Almora","DEHRADUN","Uttarakhand",263601,6
"1348","KENDRIYA VIDYALAYA NO.I BANBASA CANTT","Banbasa","DEHRADUN","Uttarakhand",262310,6
"1349","KENDRIYA VIDYALAYA NHPC NO.II BANBASA","Banbasa","DEHRADUN","Uttarakhand",262310,6
"1356","KENDRIYA VIDYALAYA BHIMTAL","Bhimtal","DEHRADUN","Uttarakhand",263136,6
"1358","KENDRIYA VIDYALAYA FRI DEHRADUN","Dehradunfri","DEHRADUN","Uttarakhand",248006,6
"1359","KENDRIYA VIDYALAYA IIP DEHRADUN","Dehraduniip","DEHRADUN","Uttarakhand",248005,6
"1360","KENDRIYA VIDYALAYA IMA DEHRADUN","Dehradunima","DEHRADUN","Uttarakhand",248007,6
"1361","KENDRIYA VIDYALAYA ITBP DEHRADUN","Dehradunitbp","DEHRADUN","Uttarakhand",248146,6
"1362","KENDRIYA VIDYALAYA DEHRADUN OLF","Dehradunoef","DEHRADUN","Uttarakhand",248008,6
"1363","KENDRIYA VIDYALAYA ONGC DEHRADUN","Dehradunongc","DEHRADUN","Uttarakhand",248195,6
"1364","KENDRIYA VIDYALAYA BIRPUR DEHRADUN","Dehradunbirpur","DEHRADUN","Uttarakhand",248003,6
"1365","KENDRIYA VIDYALAYA DEHRADUN CANTT UPPER CAMP","Dehraduncant","DEHRADUN","Uttarakhand",248003,6
"1367","KENDRIYA VIDYALAYA HBK NO.I DEHRADUN","Dehradunhbk","DEHRADUN","Uttarakhand",,6
"1368","KENDRIYA VIDYALAYA HBK NO.II DEHRADUN","Dehradunhbk","DEHRADUN","Uttarakhand",248001,6
"1369","KENDRIYA VIDYALAYA OEF DEHRADUN RAIPUR","Dehradunraipur","DEHRADUN","Uttarakhand",248008,6
"1370","KENDRIYA VIDYALAYA NHPC DHARCHULA","Dharchulanhpc","DEHRADUN","Uttarakhand",262576,6
"1371","KENDRIYA VIDYALAYA ITBP GAUCHAR","Gaucharitbp","DEHRADUN","Uttarakhand",246429,6
"1372","KENDRIYA VIDYALAYA SSB GWALDHAM","Gwaldham","DEHRADUN","Uttarakhand",246441,6
"1373","KENDRIYA VIDYALAYA HALDWANI CANTT","Haldwanicant","DEHRADUN","Uttarakhand",263139,6
"1374","KENDRIYA VIDYALAYA BHEL HARDWAR","Hardwarnoibhel","DEHRADUN","Uttarakhand",249403,6
"1375","KENDRIYA VIDYALAYA ITBP JOSHIMATH","Joshimath","DEHRADUN","Uttarakhand",246443,6
"1376","KENDRIYA VIDYALAYA KASHIPUR","Kashipur","DEHRADUN","Uttarakhand",244713,6
"1377","KENDRIYA VIDYALAYA KASAUNI","Kausani","DEHRADUN","Uttarakhand",,6
"1378","KENDRIYA VIDYALAYA LANSDOWNE","Lansdowne","DEHRADUN","Uttarakhand",246155,6
"1383","KENDRIYA VIDYALAYA (IVRI) MUKTESHWAR","Mukteshwarivri","DEHRADUN","Uttarakhand",263138,6
"1384","KENDRIYA VIDYALAYA MUSSOORIE","Mussoorieitbp","DEHRADUN","Uttarakhand",248179,6
"1386","KENDRIYA VIDYALAYA NEW TEHRI TOWN","Newtehritown","DEHRADUN","Uttarakhand",249001,6
"1387","KENDRIYA VIDYALAYA PAURI","Pauri","DEHRADUN","Uttarakhand",246001,6
"1388","KENDRIYA VIDYALAYA PITHORAGARH","Pithoragarh","DEHRADUN","Uttarakhand",262520,6
"1389","KENDRIYA VIDYALAYA RAIWALA","Raiwala","DEHRADUN","Uttarakhand",249205,6
"1391","KENDRIYA VIDYALAYA RANIKHET","Ranikhet","DEHRADUN","Uttarakhand",263645,6
"1392","KENDRIYA VIDYALAYA RISHIKESH","Rishikesh","DEHRADUN","Uttarakhand",249202,6
"1393","KENDRIYA VIDYALAYA No.I ROORKEE","Roorkee","DEHRADUN","Uttarakhand",247667,6
"1394","KENDRIYA VIDYALAYA No. II ROORKEE","Roorkee","DEHRADUN","Uttarakhand",247667,6
"1398","KENDRIYA VIDYALAYA (SSB) SRINAGAR","Srinagarssb","DEHRADUN","Uttarakhand",246174,6
"1399","KENDRIYA VIDYALAYA UTTARKASHI","Uttarkashi","DEHRADUN","Uttarakhand",249193,6
"1927","KENDRIYA VIDYALAYA AUGUSTYAMUNI","Augustyamuni","DEHRADUN","Uttarakhand",246421,6
"1928","KENDRIYA VIDYALAYA LOHAGHAT","Lohaghat","DEHRADUN","Uttarakhand",262524,6
"1929","KENDRIYA VIDYALAYA ITBP MIRTHI","Mirthiitbp","DEHRADUN","Uttarakhand",,6
"1930","KENDRIYA VIDYALAYA RAJGARHI","Rajgarhi","DEHRADUN","Uttarakhand",249141,6
"1944","KENDRIYA VIDYALAYA SOURKHAND. TEHRI","Sourkandteri","DEHRADUN","Uttarakhand",249165,6
"2133","KENDRIYA VIDYALAYA GOPESHWAR","Gopeshwar","DEHRADUN","Uttarakhand",246401,6
"2204","KENDRIYA VIDYALAYA BAGESHWAR","Bageshwar","DEHRADUN","Uttarakhand",263642,6
"2392","KENDRIYA VIDYALAYA KHATIMA","Khatima","DEHRADUN","Uttarakhand",262308,6
"2427","KENDRIYA VIDYALAYA 5TH BN SSB CHAMPAWAT","Ssbchampawat","DEHRADUN","Uttarakhand",312605,6
"1235","KENDRIYA VIDYALAYA ADRA","Adra","KOLKATA","West Bengal",723121,6
"1236","KENDRIYA VIDYALAYA ALIPURDUAR JN.","Alipurduarjn","KOLKATA","West Bengal",736123,6
"1237","KENDRIYA VIDYALAYA ANDAL","Andal","KOLKATA","West Bengal",,6
"1238","KENDRIYA VIDYALAYA ASANSOL","Asansol","KOLKATA","West Bengal",,6
"1239","KENDRIYA VIDYALAYA BAGDOGRA","Bagdogra","KOLKATA","West Bengal",734421,6
"1240","KENDRIYA VIDYALAYA BENGDUBI","Bengdubi","KOLKATA","West Bengal",734424,6
"1241","KENDRIYA VIDYALAYA BERHAMPORE","Berhampurkol","KOLKATA","West Bengal",742101,6
"1242","KENDRIYA VIDYALAYA NO.I BINNAGURI CANTT","Binnaguri","KOLKATA","West Bengal",735232,6
"1243","KENDRIYA VIDYALAYA NO.II BINNAGURI","Binnaguri","KOLKATA","West Bengal",735232,6
"1244","KENDRIYA VIDYALAYA BURDWAN","Burdwan","KOLKATA","West Bengal",713104,6
"1246","KENDRIYA VIDYALAYA (CLW) CHITTARANJAN","Chittaranjanclw","KOLKATA","West Bengal",713365,6
"1247","KENDRIYA VIDYALAYA COOCH BEHAR","Coochbehar","KOLKATA","West Bengal",736156,6
"1248","KENDRIYA VIDYALAYA (CMERI) DURGAPUR","Durgapurcmeri","KOLKATA","West Bengal",713209,6
"1249","KENDRIYA VIDYALAYA (CRPF) DURGAPUR","Durgapurcrpf","KOLKATA","West Bengal",713214,6
"1250","KENDRIYA VIDYALAYA (NTPC) FARAKKA","Farakkantpc","KOLKATA","West Bengal",,6
"1251","KENDRIYA VIDYALAYA (NHPC) MALDA","Maldanhpc","KOLKATA","West Bengal",732102,6
"1253","KENDRIYA VIDYALAYA GOVINDPUR (BSF)","Govindpurbsf","KOLKATA","West Bengal",733130,6
"1254","KENDRIYA VIDYALAYA (IOC) HALDIA","Haldiaioc","KOLKATA","West Bengal",721607,6
"1255","KENDRIYA VIDYALAYA HASIMARA","Hasimara","KOLKATA","West Bengal",735215,6
"1256","KENDRIYA VIDYALAYA KALIMPONG (DURBIN)","Kalimpong","KOLKATA","West Bengal",734301,6
"1257","KENDRIYA VIDYALAYA (SUKNA) KHAPRAIL","Suknakhaprail","KOLKATA","West Bengal",734009,6
"1258","KENDRIYA VIDYALAYA NO. I KALAIKUNDA","Kalaikunda","KOLKATA","West Bengal",721303,6
"1259","KENDRIYA VIDYALAYA NO. II KALAIKUNDA","Kalaikunda","KOLKATA","West Bengal",721303,6
"1260","KENDRIYA VIDYALAYA (IIT) NO.I KHARAGPUR","Kharagpur","KOLKATA","West Bengal",721302,6
"1261","KENDRIYA VIDYALAYA (RLY) NO.II KHARAGPUR","Kharagpur","KOLKATA","West Bengal",721301,6
"1262","KENDRIYA VIDYALAYA BAMANGACHI","Bamangachi","KOLKATA","West Bengal",711106,6
"1263","KENDRIYA VIDYALAYA (AFS) BARRACKPORE","Barrackpore","KOLKATA","West Bengal",312224,6
"1264","KENDRIYA VIDYALAYA (ARMY) BARRACKPORE","Barrackporearmy","KOLKATA","West Bengal",700120,6
"1265","KENDRIYA VIDYALAYA COSSIPORE","Cossipore","KOLKATA","West Bengal",700002,6
"1266","KENDRIYA VIDYALAYA BALIGUNGE","Baligunge","KOLKATA","West Bengal",,6
"1267","KENDRIYA VIDYALAYA ALIPORE (COMMAND HOSPITAL)","Aliporech","KOLKATA","West Bengal",700027,6
"1268","KENDRIYA VIDYALAYA (OF) DUM-DUM","Dumdumof","KOLKATA","West Bengal",700028,6
"1269","KENDRIYA VIDYALAYA FORT WILLIAM","Fortwilliam","KOLKATA","West Bengal",700021,6
"1270","KENDRIYA VIDYALAYA GARDEN REACH","Gardenreach","KOLKATA","West Bengal",700043,6
"1271","KENDRIYA VIDYALAYA IIM JOKA","Iimjoka","KOLKATA","West Bengal",700104,6
"1272","KENDRIYA VIDYALAYA NO.I SALT LAKE","Saltlake","KOLKATA","West Bengal",700064,6
"1273","KENDRIYA VIDYALAYA NO.II SALT LAKE","Saltlake","KOLKATA","West Bengal",700106,6
"1274","KENDRIYA VIDYALAYA SANTRAGACHI","Santragachi","KOLKATA","West Bengal",711112,6
"1275","KENDRIYA VIDYALAYA NO.I ISHAPORE","Ishapore","KOLKATA","West Bengal",743144,6
"1276","KENDRIYA VIDYALAYA NO.II ISHAPORE","Ishapore","KOLKATA","West Bengal",743122,6
"1277","KENDRIYA VIDYALAYA NO.I KANCHRAPARA","Kanchrapara","KOLKATA","West Bengal",743193,6
"1278","KENDRIYA VIDYALAYA NO.II KANCHRAPARA","Kanchrapara","KOLKATA","West Bengal",743145,6
"1279","KENDRIYA VIDYALAYA KANKINARA","Kankinara","KOLKATA","West Bengal",743126,6
"1282","KENDRIYA VIDYALAYA PANAGARH","Panagarh","KOLKATA","West Bengal",713420,6
"1285","KENDRIYA VIDYALAYA RBNM SALBONI","Salboni","KOLKATA","West Bengal",721132,6
"1286","KENDRIYA VIDYALAYA (AFS) SALUA","Salua","KOLKATA","West Bengal",721145,6
"1287","KENDRIYA VIDYALAYA SEVOKE ROAD","Sevokroad","KOLKATA","West Bengal",734008,6
"2082","KENDRIYA VIDYALAYA DAKSHIN DINAJPUR","Balurghat","KOLKATA","West Bengal",733103,6
"2086","KENDRIYA VIDYALAYA BIRBHUM","Birbhum","KOLKATA","West Bengal",731103,6
"2246","KENDRIYA VIDYALAYA KRISHNARAJAPURAM","Krpuramdls","BENGALURU","Karnataka",560036,6
"2284","KENDRIYA VIDYALAYA CHAMRAJ NAGAR","Chamrajnagar","BENGALURU","Karnataka",571313,6
"2299","KENDRIYA VIDYALAYA HAVERI","Haveri","BENGALURU","Karnataka",581110,6
"2300","KENDRIYA VIDYALAYA MANDYA","Mandya","BENGALURU","Karnataka",571402,6
"2301","KENDRIYA VIDYALAYA CHIKODI","Chikodi","BENGALURU","Karnataka",591201,6
"2306","KENDRIYA VIDYALAYA UDUPI","Udupi","BENGALURU","Karnataka",576104,6
"2314","KENDRIYA VIDYALAYA HUTTI","Huttihgmcl","BENGALURU","Karnataka",584115,6
"2342","KENDRIYA VIDYALAYA KADRIMIDRI","Kadrimidri","BENGALURU","Karnataka",577101,6
"2354","KENDRIYA VIDYALAYA CHANNAPATNA","Chennapatna","BENGALURU","Karnataka",562161,6
"2377","KENDRIYA VIDYALAYA GANGAVATHI","Viruppapura","BENGALURU","Karnataka",583227,6
"2381","KENDRIYA VIDYALAYA BRBNMPL MYSURU","Mysurubrbnmpl","BENGALURU","Karnataka",570003,6
"2385","KENDRIYA VIDYALAYA GAURIBIDANUR","Gauribidanur","BENGALURU","Karnataka",561208,6
"2277","KENDRIYA VIDYALAYA CHAURAI","Chaurai","JABALPUR","Madhya Pradesh",,6
"1063","KENDRIYA VIDYALAYA KANNUR","Cannanore","ERNAKULAM","Kerala",670017,6
"1064","CANNANORE NO.II (KELTRON NAGAR)","Cannanore","ERNAKULAM","Kerala",670567,6
"1077","KENDRIYA VIDYALAYA KALPETTA","Kalpetta","ERNAKULAM","Kerala",673121,6
"1078","KENDRIYA VIDYALAYA CPCRI NO. I KASRAGOD","Kasargod","ERNAKULAM","Kerala",671124,6
"1079","KENDRIYA VIDYALAYA NO.II KASRAGOD","Kasragod","ERNAKULAM","Kerala",671123,6
"1084","KENDRIYA VIDYALAYA PAYYANUR","Payyanur","ERNAKULAM","Kerala",670327,6
"1758","KENDRIYA VIDYALAYA ADOOR","Adoors1","ERNAKULAM","Kerala",691523,6
"1764","KENDRIYA VIDYALAYA NO. I CALICUT","Calicut","ERNAKULAM","Kerala",673005,6
"1765","KENDRIYA VIDYALAYA NO II CALICUT","Calicut","ERNAKULAM","Kerala",673016,6
"1780","KENDRIYA VIDYALAYA (NAD) ALWAYE","Alwayenad","ERNAKULAM","Kerala",683503,6
"1781","KENDRIYA VIDYALAYA NAVAL BASE NO.I COCHIN","Cochin","ERNAKULAM","Kerala",682004,6
"1782","KENDRIYA VIDYALAYA NO. II COCHIN","Cochin","ERNAKULAM","Kerala",682004,6
"1783","KENDRIYA VIDYALAYA NO. III COCHIN","Cochin","ERNAKULAM","Kerala",682003,6
"1784","KENDRIYA VIDYALAYA INS DRONACHARYA NO.IV COCHIN","Cochin","ERNAKULAM","Kerala",,6
"1785","KENDRIYA VIDYALAYA ERNAKULAM","Ernakulam","ERNAKULAM","Kerala",,6
"1792","KENDRIYA VIDYALAYA NTPC KAYAMKULAM","Kayamkulam","ERNAKULAM","Kerala",690507,6
"1793","KENDRIYA VIDYALAYA RUBBER BOARD KOTTAYAM","Kottayam","ERNAKULAM","Kerala",686009,6
"1795","KENDRIYA VIDYALAYA MALLAPURAM","Mallapuram","ERNAKULAM","Kerala",676505,6
"1797","KENDRIYA VIDYALAYA PALLA PURAM OTTAPALAM","Ottapalam","ERNAKULAM","Kerala",679103,6
"1798","KENDRIYA VIDYALAYA HEMAMBIKA NAGAR NO.I PALAKKAD","Palakkad","ERNAKULAM","Kerala",678009,6
"1799","KENDRIYA VIDYALAYA KANJIKODE NO.II PALGHAT","Palghat","ERNAKULAM","Kerala",678623,6
"1800","KENDRIYA VIDYALAYA CRPF PALLIPURAM","Pallipuramcrpf","ERNAKULAM","Kerala",695316,6
"1805","KENDRIYA VIDYALAYA THRISSUR (PURANATTUKARA)","Tiruchur","ERNAKULAM","Kerala",680551,6
"1806","KENDRIYA VIDYALAYA (AFS) TRIVENDRAM AKKULAM","Trivandrum","ERNAKULAM","Kerala",695029,6
"1807","KENDRIYA VIDYALAYA TRIVENDRAM PANGODE","Tvcpangode","ERNAKULAM","Kerala",695006,6
"1808","KENDRIYA VIDYALAYA TRIVANDRUM PATTOM","Tvcpattom","ERNAKULAM","Kerala",695004,6
"2098","KENDRIYA VIDYALAYA KOLLAM","Kollam","ERNAKULAM","Kerala",691003,6
"2114","KENDRIYA VIDYALAYA SAP THIRUVANANTHAPURAM","Trivandrumsap","ERNAKULAM","Kerala",695005,6
"2150","KENDRIYA VIDYALAYA PAINAVU","Painavuidukki","ERNAKULAM","Kerala",685603,6
"2170","KENDRIYA VIDYALAYA KANHAGAD","Kanhagad","ERNAKULAM","Kerala",671531,6
"2171","KENDRIYA VIDYALAYA CRPF PERINGOME","Peringomecrpf","ERNAKULAM","Kerala",670353,6
"2172","KENDRIYA VIDYALAYA EZHIMALA","Ezhimala","ERNAKULAM","Kerala",670310,6
"2189","KENDRIYA VIDYALAYA CHENNEERKARA","Chenneerkara","ERNAKULAM","Kerala",689647,6
"2190","KENDRIYA VIDYALAYA KPA RAMAVARMAPURAM","Ramavarmapuram","ERNAKULAM","Kerala",680631,6
"2260","KENDRIYA VIDYALAYA THALESSERY","Thalessery","ERNAKULAM","Kerala",670106,6
"2307","KENDRIYA VIDYALAYA KADUTHURUTHY","Kaduthurythy","ERNAKULAM","Kerala",686616,6
"2366","KENDRIYA VIDYALAYA NILESHWAR","Nileshwar","ERNAKULAM","Kerala",671314,6
"2382","KENDRIYA VIDYALAYA KONNI","Konni","ERNAKULAM","Kerala",689692,6
"1791","KENDRIYA VIDYALAYA KAVARATTI","Kavaratti","ERNAKULAM","Kerala",682555,6
"1087","KENDRIYA VIDYALAYA AFS AMLA","Amla","BHOPAL","Madhya Pradesh",460553,6
"1088","KENDRIYA VIDYALAYA CISF BARWAHA","Barwha","BHOPAL","Kerala",451115,6
"1090","KENDRIYA VIDYALAYA BHIND","Bhind","BHOPAL","Kerala",477001,6
"1091","KENDRIYA VIDYALAYA BAIRAGARH","Bairagarh","BHOPAL","Kerala",462030,6
"1092","KENDRIYA VIDYALAYA NO.I BHOPAL","","BHOPAL","Kerala",462011,6
"1093","KENDRIYA VIDYALAYA NO.II Bhopal","","BHOPAL","Kerala",462016,6
"1094","KENDRIYA VIDYALAYA NO.III Bhopal","","BHOPAL","Kerala",462026,6
"1095","KENDRIYA VIDYALAYA SEHORE","Sehore","BHOPAL","Kerala",466001,6
"1096","KENDRIYA VIDYALAYA BINA","Bina","BHOPAL","Kerala",470113,6
"1101","KENDRIYA VIDYALAYA DEWAS","Dewas","BHOPAL","Kerala",455001,6
"1102","KENDRIYA VIDYALAYA DHAR","Dhar","AHMEDABAD","Madhya Pradesh",454001,6
"1103","KENDRIYA VIDYALAYA GUNA","Guna","BHOPAL","Madhya Pradesh",473001,6
"1104","KENDRIYA VIDYALAYA NO.I GWALIOR","Gwalior","BHOPAL","Madhya Pradesh",474002,6
"1105","KENDRIYA VIDYALAYA AFS NO.II GWALIOR","Gwalior","BHOPAL","Madhya Pradesh",474020,6
"1106","KENDRIYA VIDYALAYA NO.III MORAR CANTT","Gwalior","BHOPAL","Madhya Pradesh",,6
"1107","KENDRIYA VIDYALAYA NO.IV (AFS) Gwalior","Gwalior","BHOPAL","Madhya Pradesh",474020,6
"1108","KENDRIYA VIDYALAYA AG NO.V GWALIOR","Gwalior","BHOPAL","Madhya Pradesh",474001,6
"1109","KENDRIYA VIDYALAYA HOSHANGABAD","Hoshangabad","BHOPAL","Madhya Pradesh",461005,6
"1110","KENDRIYA VIDYALAYA NO.I INDORE","Indore","BHOPAL","Madhya Pradesh",452001,6
"1111","KENDRIYA VIDYALAYA BSF NO.II INDORE","Indore","BHOPAL","Madhya Pradesh",452005,6
"1112","KENDRIYA VIDYALAYA MHOW","Mhow","BHOPAL","Madhya Pradesh",453441,6
"1113","KENDRIYA VIDYALAYA NO.I ITARASI","Itarasi","BHOPAL","Madhya Pradesh",461122,6
"1114","KENDRIYA VIDYALAYA NO. II ITARASI","Itarasi","BHOPAL","Madhya Pradesh",461114,6
"1115","KENDRIYA VIDYALAYA GAIL JHABUA","Jhabuagail","BHOPAL","Madhya Pradesh",457661,6
"1117","KENDRIYA VIDYALAYA ITBP KARERA","Kareraitbp","BHOPAL","Madhya Pradesh",473662,6
"1118","KENDRIYA VIDYALAYA KHANDWA","Khandwa","BHOPAL","Madhya Pradesh",450001,6
"1119","KENDRIYA VIDYALAYA KHARGONE","Khargone","BHOPAL","Madhya Pradesh",451001,6
"1120","KENDRIYA VIDYALAYA MANDSAUR","Mandsaur","BHOPAL","Madhya Pradesh",458001,6
"1121","KENDRIYA VIDYALAYA MURENA","Murena","BHOPAL","Madhya Pradesh",476001,6
"1126","KENDRIYA VIDYALAYA NHDC NARMADA NAGAR","Narmadanagar","BHOPAL","Madhya Pradesh",450119,6
"1127","KENDRIYA VIDYALAYA CRPF NEEMUCH","Neemuchcrpf","BHOPAL","Madhya Pradesh",458441,6
"1128","KENDRIYA VIDYALAYA NEPA NAGAR","Nepanagar","BHOPAL","Madhya Pradesh",460221,6
"1130","KENDRIYA VIDYALAYA PACHMARHI","Pachmarhi","BHOPAL","Madhya Pradesh",461881,6
"1132","KENDRIYA VIDYALAYA RAJGARH","Rajgarh","DEHRADUN","Madhya Pradesh",,6
"1133","KENDRIYA VIDYALAYA RATLAM","Ratlam","BHOPAL","Madhya Pradesh",457001,6
"1134","KENDRIYA VIDYALAYA WCL SARNI","Sarniwcl","BHOPAL","Madhya Pradesh",460447,6
"1135","KENDRIYA VIDYALAYA SEONI MALWA","Seonimalwa","BHOPAL","Madhya Pradesh",461223,6
"1136","KENDRIYA VIDYALAYA ITBP SHIVPURI","Shivpuriitbp","BHOPAL","Madhya Pradesh",473551,6
"1137","KENDRIYA VIDYALAYA UJJAIN","Ujjain","BHOPAL","Madhya Pradesh",456010,6
"1138","KENDRIYA VIDYALAYA VIDISHA","Vidisha","BHOPAL","Madhya Pradesh",464001,6
"1139","KENDRIYA VIDYALAYA GAIL VIJAYAPUR","Vijayapurgail","BHOPAL","Madhya Pradesh",473112,6
"1925","KENDRIYA VIDYALAYA SHAJAPUR","Shajapur","BHOPAL","Madhya Pradesh",465001,6
"2061","KENDRIYA VIDYALAYA MUNGAOLI","Moongawali","BHOPAL","Madhya Pradesh",473443,6
"2093","KENDRIYA VIDYALAYA BADWANI","Badwani","BHOPAL","Madhya Pradesh",451551,6
"2123","KENDRIYA VIDYALAYA SHEOPUR","Sheopur","BHOPAL","Madhya Pradesh",476337,6
"2146","KENDRIYA VIDYALAYA DATIA","Datia","BHOPAL","Madhya Pradesh",475661,6
"2199","KENDRIYA VIDYALAYA CRPF BANGRASIA","Bangrasiacrpf","BHOPAL","Madhya Pradesh",462045,6
"2200","KENDRIYA VIDYALAYA RAISEN","Raisen","BHOPAL","Madhya Pradesh",464551,6
"2201","KENDRIYA VIDYALAYA BETUL","Betul","BHOPAL","Madhya Pradesh",460001,6
"2202","KENRIYA VIDYALAYA BURHANPUR","Burhanpur","BHOPAL","Madhya Pradesh",450331,6
"2203","KENDRIYA VIDYALAYA HARDA","Harda","BHOPAL","Madhya Pradesh",461331,6
"2248","KENDRIYA VIDYALAYA TIKAMGARH","Tikamgarh","BHOPAL","Madhya Pradesh",472001,6
"2295","KENDRIYA VIDYALAYA KASRAWAD","Kasrawad","BHOPAL","Madhya Pradesh",451228,6
"2320","KENDRIYA VIDYALAYA AMBAH","Ambah","BHOPAL","Madhya Pradesh",476111,6
"2327","KENDRIYA VIDYALAYA B.S.F. ACADEMY TEKANPUR","Bsftekanpur","BHOPAL","Madhya Pradesh",475005,6
"2339","KENDRIYA VIDYALAYA CHANDERI FATEHABAD","Chanderi","BHOPAL","Madhya Pradesh",473446,6
"2341","KENDRIYA VIDYALAYA GANJ BASODA","Ganjbasoda","BHOPAL","Madhya Pradesh",464221,6
"2343","KENDRIYA VIDYALAYA MULTAI","Multai","BHOPAL","Madhya Pradesh",460661,6
"2345","KENDRIYA VIDYALAYA NO. II NEEMUCH","Neemuch","BHOPAL","Madhya Pradesh",458441,6
"2356","KENDRIYA VIDYALAYA DABRA","Dabra","BHOPAL","Madhya Pradesh",475110,6
"2410","KENDRIYA VIDYALAYA SHAMGARH","Shamgarh","BHOPAL","Madhya Pradesh",458883,6
"2414","KENDRIYA VIDYALAYA NAYAGAON CRPF","Crpfnayagaon","BHOPAL","Madhya Pradesh",475330,6
"2416","KENDRIYA VIDYALAYA AGAR MALWA","Agarmalwa","BHOPAL","Madhya Pradesh",465441,6
"2422","KENDRIYA VIDYALAYA ALIRAJPUR","Alirajpur","BHOPAL","Madhya Pradesh",457887,6
"2433","KENDRIYA VIDYALAYA IIT INDORE","Iitindore","BHOPAL","Madhya Pradesh",453552,6
"1098","KENDRIYA VIDYALAYA WCL BARKUHI CHANDAMETTA","Chandametta","JABALPUR","Madhya Pradesh",480447,6
"1100","KENDRIYA VIDYALAYA CHHATTARPUR","Chhattarpur","JABALPUR","Madhya Pradesh",471001,6
"1545","KENDRIYA VIDYALAYA BALAGHAT","Balaghat","JABALPUR","Madhya Pradesh",481102,6
"1549","KENDRIYA VIDYALAYA CHHINDWARA","Chhindwara","JABALPUR","Madhya Pradesh",480001,6
"1551","KENDRIYA VIDYALAYA DAMOH","Damoh","JABALPUR","Madhya Pradesh",470661,6
"1553","KENDRIYA VIDYALAYA DHANA","Dhana","JABALPUR","Madhya Pradesh",470228,6
"1554","KENDRIYA VIDYALAYA (SECL) DHANPURI","Dhanpurisecl","JABALPUR","Madhya Pradesh",484114,6
"1556","KENDRIYA VIDYALAYA (AOC) JABALPUR","Jabalpuraoc","JABALPUR","Madhya Pradesh",482001,6
"1557","KENDRIYA VIDYALAYA (COD) JABALPUR","Jabalpurcod","JABALPUR","Madhya Pradesh",482011,6
"1558","KENDRIYA VIDYALAYA I STC JABALPUR","Jabalpurstc","JABALPUR","Madhya Pradesh",482001,6
"1559","KENDRIYA VIDYALAYA TFRI JABALPUR","Jabalpurtfri","JABALPUR","Madhya Pradesh",482021,6
"1560","KENDRIYA VIDYALAYA (VF) JABALPUR","Jabalpurvf","JABALPUR","Madhya Pradesh",482009,6
"1561","KENDRIYA VIDYALAYA GCF NO. I JABALPUR","Jabalpurgcf","JABALPUR","Madhya Pradesh",482011,6
"1562","KENDRIYA VIDYALAYA GCF NO.II JABALPUR","Jabalpurgcf","JABALPUR","Madhya Pradesh",482011,6
"1563","KENDRIYA VIDYALAYA (OF) KHAMARIA","Khamaria","JABALPUR","Madhya Pradesh",482005,6
"1565","KENDRIYA VIDYALAYA JAMUNA COLLIERY","Jamunacolliery","JABALPUR","Madhya Pradesh",484444,6
"1567","KENDRIYA VIDYALAYA JAYANT COLLIERY","Jayantcolliery","JABALPUR","Madhya Pradesh",486890,6
"1569","KENDRIYA VIDYALAYA (OF) NO.I KATNI","Katninoiof","JABALPUR","Madhya Pradesh",483501,6
"1570","KENDRIYA VIDYALAYA (RLY) NO.II KATNI","Katninoiirly","JABALPUR","Madhya Pradesh",483501,6
"1577","KENDRIYA VIDYALAYA MANDLA","Mandla","JABALPUR","Madhya Pradesh",481661,6
"1579","KENDRIYA VIDYALAYA NARSING PUR","Narsingpur","JABALPUR","Madhya Pradesh",487001,6
"1580","KENDRIYA VIDYALAYA (SECL) NOWROZABAD","Nowrozabadsecl","JABALPUR","Madhya Pradesh",484555,6
"1584","KENDRIYA VIDYALAYA NO. I REWA","Rewa","JABALPUR","Madhya Pradesh",486001,6
"1585","KENDRIYA VIDYALAYA NO.I SAGAR CANTT","Sagarnoicant","JABALPUR","Madhya Pradesh",470001,6
"1586","KENDRIYA VIDYALAYA NO.II SAGAR","Sagar","JABALPUR","Madhya Pradesh",470004,6
"1587","KENDRIYA VIDYALAYA No. I SATNA","Satna","JABALPUR","Madhya Pradesh",485005,6
"1588","KENDRIYA VIDYALAYA SEONI","Seoni","JABALPUR","Madhya Pradesh",480661,6
"1589","KENDRIYA VIDYALAYA SHAHADOL","Shahadol","JABALPUR","Madhya Pradesh",484001,6
"1590","KENDRIYA VIDYALAYA SIDHI","Sidhi","JABALPUR","Madhya Pradesh",486661,6
"1591","KENDRIYA VIDYALAYA SINGRAULI","Singrauli","JABALPUR","Madhya Pradesh",486889,6
"1931","KENDRIYA VIDYALAYA No II REWA","Rewa","JABALPUR","Madhya Pradesh",486001,6
"1932","KENDRIYA VIDYALAYA NO.III SAGAR","Sagar","JABALPUR","Madhya Pradesh",470001,6
"2010","KENDRIYA VIDYALAYA MALANJKHAND","Malanjkhand","JABALPUR","Madhya Pradesh",481116,6
"2066","KENDRIYA VIDYALAYA DINDORI","Dindori","JABALPUR","Madhya Pradesh",481880,6
"2104","KENDRIYA VIDYALAYA PANNA","Panna","JABALPUR","Madhya Pradesh",488001,6
"2110","KENDRIYA VIDYALAYA GARHA","Garha","JABALPUR","Madhya Pradesh",482003,6
"2238","KENDRIYA VIDYALAYA NO. II CHHINDWARA","Chhindwara","JABALPUR","Madhya Pradesh",480001,6
"2239","KENDRIYA VIDYALAYA UMARIA","Umaria","JABALPUR","Madhya Pradesh",484661,6
"2241","KENDRIYA VIDYALAYA NO. II SATNA","Satnanoii","JABALPUR","Madhya Pradesh",485001,6
"2311","KENDRIYA VIDYALAYA INDRA GANDHI NATIONAL TRIBAL UNIVERSITY","Amarkantak","JABALPUR","Madhya Pradesh",484886,6
"2321","KENDRIYA VIDYALAYA JAMAI","Jamai","JABALPUR","Madhya Pradesh",480551,6
"2324","KENDRIYA VIDYALAYA PANDHURNA","Pandhurna","JABALPUR","Madhya Pradesh",480334,6
"2374","KENDRIYA VIDYALAYA HATTA NAGAR","Hatta","JABALPUR","Madhya Pradesh",470775,6
"2380","KENDRIYA VIDYALAYA LAKHNADON","Lakhnadon","JABALPUR","Madhya Pradesh",,6
"2383","KENDRIYA VIDYALAYA SAGAR NO.IV (HSGV)","Sagar","JABALPUR","Madhya Pradesh",470003,6
"2405","KENDRIYA VIDYALAYA ANUPPUR","Anuppur","JABALPUR","Madhya Pradesh",,6
"1089","KENDRIYA VIDYALAYA (OF) BHANDARA","Bhandaraof","MUMBAI","Maharashtra",441906,6
"1097","KENDRIYA VIDYALAYA (OF) CHANDA","Chandaof","MUMBAI","Maharashtra",,6
"1099","KENDRIYA VIDYALAYA (WCL) CHANDRAPUR","Chanderpurwcl","MUMBAI","Maharashtra",442404,6
"1116","KENDRIYA VIDYALAYA KAMPTEE","Kamptee","MUMBAI","Maharashtra",441001,6
"1122","KENDRIYA VIDYALAYA (CRPF) NAGPUR","Nagpurcrpf","MUMBAI","Maharashtra",440019,6
"1123","KENDRIYA VIDYALAYA (VSN) NAGPUR","Nagpurvsn","MUMBAI","Maharashtra",,6
"1124","KENDRIYA VIDYALAYA AJNI","Nagpurajni","MUMBAI","Maharashtra",440003,6
"1125","KENDRIYA VIDYALAYA AMBAJHARI","Nagpurambajhari","MUMBAI","Maharashtra",440021,6
"1129","KENDRIYA VIDYALAYA (WCL)NEW MAJARI","Newmajariwcl","MUMBAI","Maharashtra",442503,6
"1131","KENDRIYA VIDYALAYA PULGAON CAMP","Pulgaoncamp","MUMBAI","Maharashtra",442302,6
"1194","KENDRIYA VIDYALAYA NO.I AHMEDNAGAR","Ahmednagar","MUMBAI","Maharashtra",414002,6
"1195","KENDRIYA VIDYALAYA (MIRC) NO.II AHMEDNAGAR","Ahmednagar","MUMBAI","Maharashtra",414110,6
"1196","KENDRIYA VIDYALAYA (VRDE)No. III AHMEDNAGAR","Ahmednagar","MUMBAI","Maharashtra",,6
"1197","KENDRIYA VIDYALAYA Chhatrapati Sambhajinagar, CANTT","Aurangabadcantt","MUMBAI","Maharashtra",,6
"1198","KENDRIYA VIDYALAYA (OF)No. I BHUSAWAL","Bhusawal","MUMBAI","Maharashtra",425203,6
"1199","KENDRIYA VIDYALAYA NO.I DEVLALI","Devlali","MUMBAI","Maharashtra",422401,6
"1200","KENDRIYA VIDYALAYA (AFS) NO.II DEVLALI","Devlali","MUMBAI","Maharashtra",422501,6
"1201","KENDRIYA VIDYALAYA NO.I NASIK ROAD CAMP","Nasikroad","MUMBAI","Maharashtra",,6
"1202","KENDRIYA VIDYALAYA (ISP) NO.II NASIK ROAD CAMP","Nasikroad","MUMBAI","Maharashtra",,6
"1203","KENDRIYA VIDYALAYA (AFS) OJHAR","Ojhar","MUMBAI","Maharashtra",422221,6
"1204","KENDRIYA VIDYALAYA (NMU) JALGAON","Jalgaonnmu","MUMBAI","Maharashtra",425001,6
"1205","KENDRIYA VIDYALAYA NAD KARANJA","Karanjanad","MUMBAI","Maharashtra",400704,6
"1206","KENDRIYA VIDYALAYA LONAVALA","Lonavala","MUMBAI","Maharashtra",,6
"1207","KENDRIYA VIDYALAYA MANMAD","Manmad","MUMBAI","Maharashtra",,6
"1208","KENDRIYA VIDYALAYA CRPF MUDKHED","Mudkhedcrpf","MUMBAI","Maharashtra",431806,6
"1209","KENDRIYA VIDYALAYA (OF) AMBARNATH","Ambarnathof","MUMBAI","Maharashtra",421502,6
"1210","KENDRIYA VIDYALAYA BHANDUP","Bhandup","MUMBAI","Maharashtra",400078,6
"1211","KENDRIYA VIDYALAYA NO.I COLABA","Colaba","MUMBAI","Maharashtra",,6
"1212","KENDRIYA VIDYALAYA NO.II COLABA","Colaba","MUMBAI","Maharashtra",400005,6
"1213","KENDRIYA VIDYALAYA NO.III COLABA","Colaba","MUMBAI","Maharashtra",400005,6
"1214","KENDRIYA VIDYALAYA IIT POWAI","Iitpowai","MUMBAI","Maharashtra",400076,6
"1215","KENDRIYA VIDYALAYA INS HAMLA","Inshamla","MUMBAI","Maharashtra",400095,6
"1216","KENDRIYA VIDYALAYA KOLIWADA","Koliwada","MUMBAI","Maharashtra",,6
"1217","KENDRIYA VIDYALAYA MANKHURD","Mumbaimankhurd","MUMBAI","Maharashtra",,6
"1218","KENDRIYA VIDYALAYA (ONGC)PANVEL","Panvelongc","MUMBAI","Maharashtra",410221,6
"1219","KENDRIYA VIDYALAYA (AFS) THANE","Thane","MUMBAI","Maharashtra",400607,6
"1220","KENDRIYA VIDYALAYA NO.I DEHUROAD","Dehuroad","MUMBAI","Maharashtra",412101,6
"1221","KENDRIYA VIDYALAYA No. II DEHUROAD","Dehuroad","MUMBAI","Maharashtra",412101,6
"1222","KENDRIYA VIDYALAYA (SC) PUNE","Punesc","MUMBAI","Maharashtra",411001,6
"1223","KENDRIYA VIDYALAYA (AFS) NO.I PUNE","Pune","MUMBAI","Maharashtra",411032,6
"1224","KENDRIYA VIDYALAYA (AFS) NO.II PUNE","Pune","MUMBAI","Maharashtra",411032,6
"1225","KENDRIYA VIDYALAYA (9 BRD) NO.III PUNE","Pune","MUMBAI","Maharashtra",411014,6
"1226","KENDRIYA VIDYALAYA ARMY AREA PUNE","Punearmyarea","MUMBAI","Maharashtra",411040,6
"1227","KENDRIYA VIDYALAYA BEG &amp; CENTRE KHADKI PUNE","Punekhadki","MUMBAI","Maharashtra",411006,6
"1228","KENDRIYA VIDYALAYA CME PUNE","Punecme","MUMBAI","Maharashtra",,6
"1229","KENDRIYA VIDYALAYA GANESH KHIND","Ganeshkhind","MUMBAI","Maharashtra",,6
"1230","KENDRIYA VIDYALAYA IAT GIRINAGAR","Iatgirinagar","MUMBAI","Maharashtra",411025,6
"1231","KENDRIYA VIDYALAYA (NDA)KHADAK VASLA","Khadakvaslanda","MUMBAI","Maharashtra",411023,6
"1232","KENDRIYA VIDYALAYA RANGE HILLS ESTATE","Punerhe","MUMBAI","Maharashtra",411020,6
"1233","KENDRIYA VIDYALAYA SHOLAPUR","Sholapur","MUMBAI","Maharashtra",413001,6
"1234","KENDRIYA VIDYALAYA (OF) VARANGAON","Varangaonof","MUMBAI","Maharashtra",425308,6
"2088","KENDRIYA VIDYALAYA YAWATMAL","Yawatmal","MUMBAI","Maharashtra",,6
"2101","KENDRIYA VIDYALAYA DHULE","Dhule","MUMBAI","Maharashtra",,6
"2196","KENDRIYA VIDYALAYA SCR NANDED","Nandedscrly","MUMBAI","Maharashtra",431605,6
"2197","KENDRIYA VIDYALAYA BSF CHAKUR","Chakurbsf","MUMBAI","Maharashtra",,6
"2198","KENDRIYA VIDYALAYA CRPF TELIGAON","Teligaoncrpf","MUMBAI","Maharashtra",,6
"2310","KENDRIYA VIDYALAYA MAHATAMA GANDHI ANTARASHTRIYA HINDI VISHAV VIDYALAYA(Wardha)","Wardhamgahv","MUMBAI","Maharashtra",442001,6
"2384","KENDRIYA VIDYALAYA WASHIM","Washimdiet","MUMBAI","Maharashtra",444505,6
"2390","KENDRIYA VIDYALAYA PARBHANI","Parbhani","MUMBAI","Maharashtra",431402,6
"1862","KENDRIYA VIDYALAYA (BSF) CHURA CHAND PUR","Churachandpur","TINSUKIA","Manipur",795006,6
"1871","KENDRIYA VIDYALAYA(LAMPHELPAT)NO.I IMPHAL","Imphal","TINSUKIA","Manipur",795004,6
"1872","KENDRIYA VIDYALAYA (CRPF)NO.II IMPHAL","Imphal","TINSUKIA","Manipur",795113,6
"1873","KENDRIYA VIDYALAYA (LEIMAKHONG)NO III IMPHAL","Imphal","TINSUKIA","Manipur",795002,6
"1879","KENDRIYA VIDYALAYA. NHPC. LOKTAK","Loktakhep","TINSUKIA","Manipur",795124,6
"2089","KENDRIYA VIDYALAYA TAMENGLONG","Temenglong","TINSUKIA","Manipur",795141,6
"2090","KENDRIYA VIDYALAYA UKHRUL","Ukhrul","TINSUKIA","Manipur",795142,6
"2317","KENDRIYA VIDYALAYA AKAMPAT","Akampat","TINSUKIA","Manipur",795010,6
"2332","KENDRIYA VIDYALAYA NAGALAND UNIVERISTY LUMAMI","Lumaminu","TINSUKIA","Manipur",798627,6
"2386","KENDRIYA VIDYALAYA CHAKPIKARONG","Chakpikarong","TINSUKIA","Manipur",795102,6
"1490","KENDRIYA VIDYALAYA (NEPA) BARAPANI","Barapaninepa","SILCHAR","Meghalaya",793123,6
"1491","KENDRIYA VIDYALAYA (HAPPY VALLEY)SHILLONG","Happyvalley","SILCHAR","Manipur",793007,6
"1492","KENDRIYA VIDYALAYA (AFS) LAITKOR PEAK SHILLONG","Laitkorpeak","SILCHAR","Manipur",793010,6
"1493","KENDRIYA VIDYALAYA (NEHU) SHILLONG","Shillongnehu","SILCHAR","Manipur",793022,6
"1494","KENDRIYA VIDYALAYA EAC UPPER SHILLONG","Shillongupper","SILCHAR","Manipur",793009,6
"1495","KENDRIYA VIDYALAYA UMROI CANTT","Umroicant","SILCHAR","Manipur",,6
"1500","KENDRIYA VIDYALAYA TURA","Tura","SILCHAR","Manipur",794101,6
"1856","KENDRIYA VIDYALAYA AIZAWL","Aizawal","SILCHAR","Manipur",796017,6
"1881","KENDRIYA VIDYALAYA LUNGLEI","Lungleh","SILCHAR","Manipur",796701,6
"2154","KENDRIYA VIDYALAYA MIZORAM UNIVERSITY TANHRIL","Aizawaltanhril","SILCHAR","Manipur",796004,6
"2210","KENDRIYA VIDYALAYA CHAMPHAI","Champhai","SILCHAR","Manipur",796321,6
"1865","KENDRIYA VIDYALAYA (CRPF)DIMAPUR","Dimapurcrpf","TINSUKIA","Manipur",797112,6
"1877","KENDRIYA VIDYALAYA (CRPF)LARIE HILL KOHIMA","Kohimacrpf","TINSUKIA","Manipur",797001,6
"1885","KENDRIYA VIDYALAYA RANGAPAHAR CANTT","Rangapaharcant","TINSUKIA","Manipur",393999,6
"1895","KENDRIYA VIDYALAYA TULI","Tuli","TINSUKIA","Manipur",798623,6
"1140","KENDRIYA VIDYALAYA ANGUL","Angul","BHUBANESWAR","Odisha",759122,6
"1141","KENDRIYA VIDYALAYA BALASORE","Balasore","BHUBANESWAR","Odisha",756001,6
"1142","KENDRIYA VIDYALAYA BARGARH","Bargarh","BHUBANESWAR","Odisha",768038,6
"1143","KENDRIYA VIDYALAYA BARIPADA","Baripada","BHUBANESWAR","Odisha",757107,6
"1144","KENDRIYA VIDYALAYA BERHAMPUR","Berhampur","BHUBANESWAR","Odisha",,6
"1145","KENDRIYA VIDYALAYA BHAWANI PATNA","Bhawanipatna","BHUBANESWAR","Odisha",766001,6
"1146","KENDRIYA VIDYALAYA NO. I BHUBANESHWAR","","BHUBANESWAR","Odisha",751022,6
"1147","KENDRIYA VIDYALAYA CRPF NO. II BHUBANESHWAR","Bbsr","BHUBANESWAR","Odisha",751011,6
"1148","KENDRIYA VIDYALAYA NO.IV BHUBANESHWAR","","BHUBANESWAR","Odisha",751021,6
"1149","KENDRIYA VIDYALAYA CUTTACK","Cuttack","BHUBANESWAR","Odisha",753014,6
"1150","KENDRIYA VIDYALAYA KHURDA ROAD","Khurdaroad","BHUBANESWAR","Odisha",752050,6
"1151","KENDRIYA VIDYALAYA NO.III MANCHESWAR","","BHUBANESWAR","Odisha",751017,6
"1155","KENDRIYA VIDYALAYA OF NO.I BOLANGIR","Bolangir","BHUBANESWAR","Odisha",767070,6
"1156","KENDRIYA VIDYALAYA NO.II BOLANGIR","Bolangir","BHUBANESWAR","Odisha",767001,6
"1157","KENDRIYA VIDYALAYA BONDAMUNDA","Bondamunda","BHUBANESWAR","Odisha",770032,6
"1160","KENDRIYA VIDYALAYA ARC CHARBATIA","Charbatiaarc","BHUBANESWAR","Odisha",754028,6
"1161","KENDRIYA VIDYALAYA INS CHILKA","Chilkains","BHUBANESWAR","Odisha",752037,6
"1165","KENDRIYA VIDYALAYA DHENKANAL TOWN","Dhenkanaltown","BHUBANESWAR","Odisha",759015,6
"1167","KENDRIYA VIDYALAYA GOPALPUR CANTT.","Gopalpurcant","BHUBANESWAR","Odisha",761052,6
"1169","KENDRIYA VIDYALAYA JHARSUGUDA","Jharsuguda","BHUBANESWAR","Odisha",768201,6
"1170","KENDRIYA VIDYALAYA KEONJHAR","Keonjhar","BHUBANESWAR","Odisha",758002,6
"1171","KENDRIYA VIDYALAYA KORAPUT","Koraput","BHUBANESWAR","Odisha",764020,6
"1174","KENDRIYA VIDYALAYA PARADIP PORT","Paradipport","BHUBANESWAR","Odisha",754142,6
"1176","KENDRIYA VIDYALAYA PURI","Puri","BHUBANESWAR","Odisha",752002,6
"1186","KENDRIYA VIDYALAYA ROURKELA","Rourkela","BHUBANESWAR","Odisha",769002,6
"1187","KENDRIYA VIDYALAYA No. I SAMBALPUR","Sambalpur","BHUBANESWAR","Odisha",768006,6
"1189","KENDRIYA VIDYALAYA SUNABEDA","Sunabedanad","BHUBANESWAR","Odisha",763004,6
"1190","KENDRIYA VIDYALAYA SUNDARGARH","Sundargarh","BHUBANESWAR","Odisha",770020,6
"1192","KENDRIYA VIDYALAYA NTPC KANIHA","","BHUBANESWAR","Odisha",759147,6
"2065","KENDRIYA VIDYALAYA BOUDH","Boudh","BHUBANESWAR","Odisha",762014,6
"2067","KENDRIYA VIDYALAYA GAJAPATI","Gajapati","BHUBANESWAR","Odisha",761201,6
"2068","KENDRIYA VIDYALAYA MALKANGIRI","Malkangiri","BHUBANESWAR","Odisha",764048,6
"2069","KENDRIYA VIDYALAYA NABRANGPUR","Nabrangpur","BHUBANESWAR","Odisha",764059,6
"2070","KENDRIYA VIDYALAYA RAYAGADA","Rayagada","BHUBANESWAR","Odisha",765002,6
"2124","KENDRIYA VIDYALAYA KANDHAMAL","Kandhamal","BHUBANESWAR","Odisha",762012,6
"2126","KENDRIYA VIDYALAYA BHADRAK","Bhadrak","BHUBANESWAR","Odisha",756116,6
"2218","KENDRIYA VIDYALAYA KUTRA","Kutra","BHUBANESWAR","Odisha",770018,6
"2219","KENDRIYA VIDYALAYA NO.II CUTTACK","Cuttack","BHUBANESWAR","Odisha",753010,6
"2220","KENDRIYA VIDYALAYA BHANJNAGAR","Bhanjanagar","BHUBANESWAR","Odisha",761126,6
"2221","KENDRIYA VIDYALAYA MURGABADI","Murgabadi","BHUBANESWAR","Odisha",757002,6
"2222","KENDRIYA VIDYALAYA SONEPUR","Sonepur","BHUBANESWAR","Odisha",767017,6
"2223","KENDRIYA VIDYALAYA DEVGARH","Deogarh","BHUBANESWAR","Odisha",768108,6
"2224","KENDRIYA VIDYALAYA JAJPUR","Jajpur","BHUBANESWAR","Odisha",755062,6
"2225","KENDRIYA VIDYALAYA DIGAPAHANDI","Digapahandi","BHUBANESWAR","Odisha",761012,6
"2226","KENDRIYA VIDYALAYA ASKA","Berhampuraska","BHUBANESWAR","Odisha",761111,6
"2227","KENDRIYA VIDYALAYA NUAPADA","Nuapada","BHUBANESWAR","Odisha",766105,6
"2228","KENDRIYA VIDYALAYA NDRF NO. III MUNDALI","Cuttack","BHUBANESWAR","Odisha",754013,6
"2229","KENDRIYA VIDYALAYA BARIMUL","Barimul","BHUBANESWAR","Odisha",754250,6
"2230","KENDRIYA VIDYALAYA NAYAGARH","Nayagarh","BHUBANESWAR","Odisha",752069,6
"2231","KENDRIYA VIDYALAYA KHARIAR","Khariarnuapada","BHUBANESWAR","Odisha",766107,6
"2232","KENDRIYA VIDYALAYA NO. V KALINGA NAGAR","","BHUBANESWAR","Odisha",751029,6
"2233","KENDRIYA VIDYALAYA NO.VI POKHARIPUT","","BHUBANESWAR","Odisha",751020,6
"2234","KENDRIYA VIDYALAYA MAHULDIHA","Rairangpur","BHUBANESWAR","Odisha",757043,6
"2315","KENDRIYA VIDYALAYA NO. II SAMBALPUR","Sambalpur","BHUBANESWAR","Odisha",768017,6
"2316","KENDRIYA VIDYALAYA HINJILICUT","Hinjilicut","BHUBANESWAR","Odisha",761102,6
"2326","KENDRIYA VIDYALAYA VYASNAGAR","Vyasnagar","BHUBANESWAR","Odisha",755019,6
"2328","KENDRIYA VIDYALAYA DHARAMGARH","Dharamgarh","BHUBANESWAR","Odisha",766015,6
"2361","KENDRIYA VIDYALAYA NO.II BALASORE","Balasore","BHUBANESWAR","Odisha",756019,6
"2362","KENDRIYA VIDYALAYA NO. II ANGUL","Angul","BHUBANESWAR","Odisha",759123,6
"2363","KENDRIYA VIDYALAYA JAGATSINGHPUR","Jagatsinghpur","BHUBANESWAR","Odisha",754102,6
"2401","KENDRIYA VIDYALAYA GUNUPUR","Gunupur","BHUBANESWAR","Odisha",765022,6
"2407","KENDRIYA VIDYALAYA ANANDAPUR","Anandpur","BHUBANESWAR","Odisha",,6
"2436","KENDRIYA VIDYALAYA CHATRAPUR","Chatrapur","BHUBANESWAR","Odisha",761020,6
"2441","KENDRIYA VIDYALAYA MCL JAGANNATH AREA","Mcljagannath","BHUBANESWAR","Odisha",759116,6
"2442","KENDRIYA VIDYALAYA MCL SUBHADRA AREA","Mclsubhadra","BHUBANESWAR","Odisha",759116,6
"2443","KENDRIYA VIDYALAYA IIT BHUBANESWAR","Iitbbsr","BHUBANESWAR","Odisha",751013,6
"1283","KENDRIYA VIDYALAYA NO. I PORT BLAIR","Portblair","CHENNAI","Tamil Nadu",,6
"1284","KENDRIYA VIDYALAYA NO. II PORT BLAIR","Portblair","CHENNAI","Tamil Nadu",744103,6
"1801","KENDRIYA VIDYALAYA NO.I JIPMER CAMPUS PONDICHERRY","Pondicherry","CHENNAI","Tamil Nadu",605006,6
"1802","KENDRIYA VIDYALAYA NO.II KALAPET PONDICHERRY","Pondicherry","CHENNAI","Tamil Nadu",605014,6
"2147","KENDRIYA VIDYALAYA MAHE","Mahe","CHENNAI","Tamil Nadu",670671,6
"2191","KENDRIYA VIDYALAYA KARAIKAL","Karaikal","CHENNAI","Tamil Nadu",609604,6
"1289","KENDRIYA VIDYALAYA ABOHAR","Abohar","CHANDIGARH","Punjab",152116,6
"1295","KENDRIYA VIDYALAYA BADDOWAL CANTT","Baddowalcant","CHANDIGARH","Punjab",142021,6
"1296","KENDRIYA VIDYALAYA AFS BARNALA","Barnala","CHANDIGARH","Punjab",148109,6
"1297","KENDRIYA VIDYALAYA NO.I THIMAYYA MARG BHATINDA","Bhatinda","CHANDIGARH","Punjab",151004,6
"1298","KENDRIYA VIDYALAYA NO.IV BHATINDA","Bhatinda","CHANDIGARH","Punjab",151004,6
"1299","KENDRIYA VIDYALAYA NO.V BHATINDA","Bhatinda","CHANDIGARH","Punjab",151004,6
"1300","KENDRIYA VIDYALAYA AFS NO.III BHATINDA","Bhatinda","CHANDIGARH","Punjab",151201,6
"1301","KENDRIYA VIDYALAYA OCF CHANDIGARH","Chandigarhocf","CHANDIGARH","Punjab",160030,6
"1302","KENDRIAYA VIDYALAYA 3 BRD NO.II CHANDIGARH","Chandigarh3brd","CHANDIGARH","Punjab",160003,6
"1303","KENDRIYA VIDYALAYA HIGH GROUNDS","Highgrounds","CHANDIGARH","Punjab",160004,6
"1304","KENDRIYA VIDYALAYA SECTOR 31 CHANDIGARH","Chandigarhsec31","CHANDIGARH","Punjab",160030,6
"1308","KENDRIYA VIDYALAYA MULLANPUR GARIBDAS","Mullanpur","CHANDIGARH","Punjab",140901,6
"1309","KENDRIYA VIDYALAYA ZIRAKPUR","Zirakpur","CHANDIGARH","Punjab",140603,6
"1310","KENDRIYA VIDYALAYA DAPPAR","Dappar","CHANDIGARH","Punjab",140506,6
"1311","KENDRIYA VIDYALAYA FARIDKOT","Faridkot","CHANDIGARH","Punjab",151203,6
"1312","KENDRIYA VIDYALAYA CANTT. NO. I FEROZEPUR","Ferozepur","CHANDIGARH","Punjab",152001,6
"1313","KENDRIYA VIDYALAYA NO. II FEROZEPUR CANTT.","Ferozepur","CHANDIGARH","Punjab",152001,6
"1314","KENDRIYA VIDYALAYA AFS NO.I HALWARA","Halwara","CHANDIGARH","Punjab",141106,6
"1315","KENDRIYA VIDYALAYA AFS NO.II HALWARA","Halwara","CHANDIGARH","Punjab",141106,6
"1319","KENDRIYA VIDYALAYA BSF JALALABAD","Jalalabadbsf","CHANDIGARH","Punjab",152024,6
"1321","KENDRIYA VIDYALAYA No.1 RCF HUSSAINPUR","Hussainpur","CHANDIGARH","Punjab",144602,6
"1322","KENDRIYA VIDYALAYA KAPURTHALA CANTT.","Kapurthalacant","CHANDIGARH","Punjab",144601,6
"1328","KENDRIYA VIDYALAYA NABHA CANTT.","Nabhacant","CHANDIGARH","Punjab",147201,6
"1335","KENDRIYA VIDYALAYA NO. I PATIALA","Patiala","CHANDIGARH","Punjab",147001,6
"1336","KENDRIYA VIDYALAYA DCW NO.II PATIALA","Patiala","CHANDIGARH","Punjab",147003,6
"1337","KENDRIYA VIDYALAYA NO. III PATIALA","Patiala","CHANDIGARH","Punjab",147001,6
"1645","KENDRIYA VIDYALAYA NO. I ADAMPUR","Adampur","CHANDIGARH","Punjab",144103,6
"1646","KENDRIYA VIDYALAYA NO. II ADAMPUR","Adampur","CHANDIGARH","Punjab",144103,6
"1650","KENDRIYA VIDYALAYA NO.I AMRITSAR CANTT","Asr","CHANDIGARH","Punjab",143001,6
"1652","KENDRIYA VIDYALAYA NO.III AMRITSAR NEW CANTT","Asr","CHANDIGARH","Punjab",143106,6
"1667","KENDRIYA VIDYALAYA TIBRI CANTT","Gsptibricantt","CHANDIGARH","Punjab",143531,6
"1669","KENDRIYA VIDYALAYA NO. I JALANDHAR CANTT.","Jldcant","CHANDIGARH","Punjab",144005,6
"1670","KENDRIYA VIDYALAYA NO.II JALANDHAR CANTT.","Jldcantt","CHANDIGARH","Punjab",144005,6
"1671","KENDRIYA VIDYALAYA NO.III JALANDHAR CANTT.","Jldcantt","CHANDIGARH","Punjab",144005,6
"1672","KENDRIYA VIDYALAYA NO.IV (AFS) JALANDHAR CANTT.","Jldcantt","CHANDIGARH","Punjab",144005,6
"1673","KENDRIYA VIDYALAYA SURANASSI","Suranassi","CHANDIGARH","Punjab",144027,6
"1687","KENDRIYA VIDYALAYA NANGAL BHUR","Nangalbhur","CHANDIGARH","Punjab",145101,6
"1690","KENDRIYA VIDYALAYA AFS NO. 1 PATHANKOT","Pathankot","CHANDIGARH","Punjab",145001,6
"1691","KENDRIYA VIDYALAYA NO.II ARMY PATHANKOT","Pathankot","CHANDIGARH","Punjab",145001,6
"1692","KENDRIYA VIDYALAYA NO. III PATHANKOT","Pathankot","CHANDIGARH","Punjab",145001,6
"1693","KENDRIYA VIDYALAYA NO IV MAMOON CANTT PATHANKOT","Pathankot","CHANDIGARH","Punjab",145001,6
"1696","KENDRIYA VIDYALAYA BSF SHIKAR PUR","Dbnshikarbsf","CHANDIGARH","Punjab",143605,6
"2106","KENDRIYA VIDLAYALAYA RCF KAPURTHALA HUSSAINPUR II","Hussainpur","CHANDIGARH","Punjab",144602,6
"2161","KENDRIYA VIDYALAYA CRPF SARAIKHAS","Saraikhascrpf","CHANDIGARH","Punjab",144805,6
"2162","KENDRIYA VIDYALAYA BSF BHIKIWIND","Bhikiwindbsf","CHANDIGARH","Punjab",143303,6
"2163","KENDRIYA VIDYALAYA BSF AMARKOT","Amarkotbsf","CHANDIGARH","Punjab",143419,6
"2212","KENDRIYA VIDYALAYA MOHALI","Mohali","CHANDIGARH","Punjab",140308,6
"2213","KENDRIYA VIDYALAYA BSF KMS WALA","Ferozepurbsf","CHANDIGARH","Punjab",252003,6
"2215","KEDRIYA VIDYALAYA UBHAWAL","Ubhawal","CHANDIGARH","Punjab",148001,6
"2216","KENDRIYA VIDYALAYA BSF FAZILKA","Fazilkabsf","CHANDIGARH","Punjab",152123,6
"2217","KENDRIYA VIDYALAYA REONA UCHA","Fatehgarhsahib","CHANDIGARH","Punjab",140406,6
"2249","KENDRIYA VIDYALAYA BHUNGA","Bhunga","CHANDIGARH","Punjab",144210,6
"2281","KENDRIYA VIDYALAYA SLIET LONGOWAL","Longowalsliet","CHANDIGARH","Punjab",148106,6
"2335","KENDRIYA VIDYALAYA KHANPUR","Khanpur","CHANDIGARH","Punjab",140001,6
"2437","KENDRIYA VIDYALAYA IIT ROPAR","Iitropar","CHANDIGARH","Punjab",,6
"1592","KENDRIYA VIDYALAYA (CRPF) NO.I AJMER","Ajmer","JAIPUR","Rajasthan",,6
"1593","KENDRIYA VIDYALAYA CRPF NO.II AJMER","Ajmer","JAIPUR","Rajasthan",305001,6
"1594","KENDRIYA VIDYALAYA NASIRABAD","Nasirabad","JAIPUR","Rajasthan",305601,6
"1595","KENDRIYA VIDYALAYA ALWAR","Alwar","JAIPUR","Rajasthan",301001,6
"1596","KENDRIYA VIDYALAYA ITARANA","Alwaritarana","JAIPUR","Rajasthan",301001,6
"1597","KENDRIYA VIDYALAYA (BSF)ANOOPGARH","Anoopgarhbsf","JAIPUR","Rajasthan",335701,6
"1598","KENDRIYA VIDYALAYA (AGPP) ANTA","Antaagpp","JAIPUR","Rajasthan",325209,6
"1599","KENDRIYA VIDYALAYA (SWRI) AVIKANAGAR","Avikanagar","JAIPUR","Rajasthan",304501,6
"1600","KENDRIYA VIDYALAYA BANSWARA","Banswara","JAIPUR","Rajasthan",327001,6
"1601","KENDRIYA VIDYALAYA BARAN","Baran","JAIPUR","Rajasthan",325205,6
"1602","KENDRIYA VIDYALAYA BEAWAR","Beawar","JAIPUR","Rajasthan",,6
"1603","KENDRIYA VIDYALAYA BHARATPUR","Bharatpur","JAIPUR","Rajasthan",321001,6
"1604","KENDRIYA VIDYALAYA BHILWARA","Bhilwara","JAIPUR","Rajasthan",311001,6
"1605","KENDRIYA VIDYALAYA NO.I (SAGAR ROAD)","Bikaner","JAIPUR","Rajasthan",334001,6
"1606","KENDRIYA VIDYALAYA NO.II BIKANER","Bikaner","JAIPUR","Rajasthan",334022,6
"1607","KENDRIYA VIDYALAYA (AFS) NO.III NAL BIKANER","Bikaner","JAIPUR","Rajasthan",334001,6
"1608","KENDRIYA VIDYALAYA CHURU","Churu","JAIPUR","Rajasthan",331001,6
"1609","KENDRIYA VIDYALAYA (BSF) DABLA","Dablabsf","JAIPUR","Rajasthan",345001,6
"1610","KENDRIYA VIDYALAYA (CISF) DEOLI","Deolicisf","JAIPUR","Rajasthan",304804,6
"1611","KENDRIYA VIDYALAYA (AFS) JAISALMER","Jaisalmer","JAIPUR","Rajasthan",345001,6
"1612","KENDRIYA VIDYALAYA NO.I BAJAJ NAGAR JAIPUR","Jaipur","JAIPUR","Rajasthan",302015,6
"1613","KENDRIYA VIDYALAYA NO.II JAIPUR CANTT","Jaipur","JAIPUR","Rajasthan",302012,6
"1614","KENDRIYA VIDYALAYA NO.III MREC JAIPUR","Jaipur","JAIPUR","Rajasthan",,6
"1615","KENDRIYA VIDYALAYA NO.IV (KHATIPURA) JAIPUR","Jaipur","JAIPUR","Rajasthan",302012,6
"1616","KENDRIYA VIDYALAYA NO.V MANSAROVER JAIPUR","Jaipur","JAIPUR","Rajasthan",302020,6
"1617","KENDRIYA VIDYALAYA NO.VI SECTOR III PRATAP NAGAR","Jaipur","JAIPUR","Rajasthan",,6
"1618","KENDRIYA VIDYALAYA JALIPA CANTT","Jalipacant","JAIPUR","Rajasthan",344001,6
"1619","KENDRIYA VIDYALAYA UTTARLAI","Uttarlai","JAIPUR","Rajasthan",344001,6
"1620","KENDRIYA VIDYALAYA JHALAWAR","Jhalawar","JAIPUR","Rajasthan",326001,6
"1621","KENDRIYA VIDYALAYA JHUNJHUNU","Jhunjhunu","JAIPUR","Rajasthan",333001,6
"1622","KENDRIYA VIDYALAYA BANAR","Jodhpurbanar","JAIPUR","Rajasthan",342027,6
"1623","KENDRIYA VIDYALAYA (BSF) JODHPUR","Jodhpurbsf","JAIPUR","Rajasthan",342026,6
"1624","KENDRIYA VIDYALAYA AFS NO.I JODHPUR","Jodhpur","JAIPUR","Rajasthan",342011,6
"1625","KENDRIYA VIDYALAYA Army NO. I JODHPUR","Jodhpur","JAIPUR","Rajasthan",342015,6
"1626","KENDRIYA VIDYALAYA ( AFS) NO.II JODHPUR","Jodhpur","JAIPUR","Rajasthan",342011,6
"1627","KENDRIYA VIDYALAYA (ARMY)NO.II JODHPUR","Jodhpur","JAIPUR","Rajasthan",342015,6
"1628","KENDRIYA VIDYALAYA NO.I KOTA","Kota","JAIPUR","Rajasthan",324002,6
"1629","KENDRIYA VIDYALAYA NO.II KOTA","Kota","JAIPUR","Rajasthan",324002,6
"1630","KENDRIYA VIDYALAYA (CRPF) MOUNTABU","Mountabucrpf","JAIPUR","Rajasthan",307501,6
"1631","KENDRIYA VIDYALAYA PHULERA","Phulera","JAIPUR","Rajasthan",303338,6
"1632","KENDRIYA VIDYALAYA (BSF) POKHRAN","Pokhranbsf","JAIPUR","Rajasthan",345021,6
"1634","KENDRIYA VIDYALAYA LALGARH JATTAN","Lalgarhjattan","JAIPUR","Rajasthan",335037,6
"1635","KENDRIYA VIDYALAYA SHRI GANGA NAGAR CANTT","Sgnrcantt","JAIPUR","Rajasthan",335001,6
"1636","KENDRIYA VIDYALAYA SIKAR","Sikar","JAIPUR","Rajasthan",332001,6
"1637","KENDRIYA VIDYALAYA (AFS) NO.II SURATGARH","Suratgarh","JAIPUR","Rajasthan",335804,6
"1638","KENDRIYA VIDYALAYA (AFS)NO.I SURATGARH","Suratgarh","JAIPUR","Rajasthan",335804,6
"1639","KENDRIYA VIDYALAYA NO.II SURATGARH CANTT","Suratgarhcantt","JAIPUR","Rajasthan",335804,6
"1640","KENDRIYA VIDYALAYA STPS SURATGARH","Suratgarhstps","JAIPUR","Rajasthan",335805,6
"1641","KENDRIYA VIDYALAYA SAWAI MADHOPUR","Sawaimadhopur","JAIPUR","Rajasthan",322001,6
"1643","KENDRIYA VIDYALAYA NO.II EKLINGGARH UDAIPUR","Udaipur","JAIPUR","Rajasthan",313001,6
"1933","KENDRIYA VIDYALAYA GANGAPUR CITY","Gangapurcity","JAIPUR","Rajasthan",322201,6
"1934","KENDRIYA VIDYALAYA KARAULI","Karauli","JAIPUR","Rajasthan",322241,6
"2012","KENDRIYA VIDYALAYA KHETRI NAGAR","Khetrinagar","JAIPUR","Rajasthan",333504,6
"2099","KENDRIYA VIDYALAYA DUNGAR PUR","Dungarpur","JAIPUR","Rajasthan",314001,6
"2120","KENDRIYA VIDYALAYA CHITTORGARH","Chhittorgarh","JAIPUR","Rajasthan",312001,6
"2173","KENDRIYA VIDYALAYA BSF RAMGARH","Ramgarhbsf","JAIPUR","Rajasthan",,6
"2174","KENDRIYA VIDYALAYA BSF RAISINGHNAGAR","Raisinghnagar","JAIPUR","Rajasthan",335051,6
"2176","KENDRIYA VIDYALAYA DEOGARH","Deogarhjpr","JAIPUR","Rajasthan",313331,6
"2177","KENDRIYA VIDYALAYA BSF KHAJUWALA","Khajuwalabsf","JAIPUR","Rajasthan",334023,6
"2253","KENDRIYA VIDYALAYA TONK","Tonk","JAIPUR","Rajasthan",304001,6
"2261","KENDRIYA VIDYALAYA INDERPURA","Inderpura","JAIPUR","Rajasthan",333307,6
"2262","KENDRIYA VIDYALAYA CHHABRA THERMAL POWER PROJECT (CTPS)","Chhabractpp","JAIPUR","Rajasthan",325220,6
"2286","KENDRIYA VIDYALAYA JALORE","Jalore","JAIPUR","Rajasthan",343001,6
"2292","KENDRIYA VIDYALAYA. CENTRAL UNIVERSITY OF RAJASTHAN. BANDERSINDRI","Bandarsindari","JAIPUR","Rajasthan",305817,6
"2294","KENDRIYA VIDYALAYA BUNDI","Boondi","JAIPUR","Rajasthan",323001,6
"2297","KENDRIYA VIDYALAYA JAISINDHAR","Jaisindhar","JAIPUR","Rajasthan",344501,6
"2298","KENDRIYA VIDYALAYA DAUSA","Dausa","JAIPUR","Rajasthan",303303,6
"2303","KENDRIYA VIDYALAYA HANUMANGARH","Hanumangarh","JAIPUR","Rajasthan",335512,6
"2337","KENDRIYA VIDYALAYA NAGAUR","Nagaur","JAIPUR","Rajasthan",341001,6
"2340","KENDRIYA VIDYALAYA CISF JAIPUR","","JAIPUR","Rajasthan",302028,6
"2350","KENDRIYA VIDYALAYA IIT JODHPUR","Iitjodhpur","JAIPUR","Rajasthan",,6
"2353","KENDRIYA VIDYALAYA DHOLPUR","Dholpur","JAIPUR","Rajasthan",328001,6
"2375","KENDRIYA VIDYALAYA TINVARI","Tinwari","JAIPUR","Rajasthan",342306,6
"2376","KENDRIYA VIDYALAYA PALI","Pali","JAIPUR","Rajasthan",306401,6
"2411","KENDRIYA VIDYALAYA BANDIKUI","Bandikui","JAIPUR","Rajasthan",303313,6
"2426","KENDRIYA VIDYALAYA PRATAPGARH","Pratapgarh","JAIPUR","Rajasthan",,6
"1642","KENDRIYA VIDYALAYA NO.I (PRATAP NAGAR) UDAIPUR","Udaipur","JAIPUR","Rajasthan",313001,6
"1252","KENDRIYA VIDYALAYA GANGTOK","Gangtok","KOLKATA","Sikkim",737102,6
"1288","KENDRIYA VIDYALAYA NHPC SINGTAM","Teestanhpc","KOLKATA","Sikkim",737134,6
"1759","KENDRIYA VIDYALAYA NO.I ARAKKONAM","Arakkonam","CHENNAI","Tamil Nadu",631006,6
"1760","KENDRIYA VIDYALAYA CISF NO.II ARAKKONAM","Arakkonam","CHENNAI","Tamil Nadu",631152,6
"1761","KENDRIYA VIDYALAYA ARUVANKADU","Aruvankadu","CHENNAI","Tamil Nadu",643202,6
"1762","KENDRIYA VIDYALAYA HPF OOTACAMUND","Ootacamundhpf","CHENNAI","Tamil Nadu",643005,6
"1763","KENDRIYA VIDYALAYA WELLINGTON","Wellington","CHENNAI","Tamil Nadu",,6
"1766","KENDRIYA VIDYALAYA CLRI CHENNAI","Chennaiclri","CHENNAI","Tamil Nadu",600020,6
"1767","KENDRIYA VIDYALAYA ANNA NAGAR CHENNAI","Annanagar","CHENNAI","Tamil Nadu",600040,6
"1768","KENDRIYA VIDYALAYA K.K. NAGAR ASHOK NAGAR","Ashoknagar","CHENNAI","Tamil Nadu",,6
"1769","KENDRIYA VIDYALAYA AFS AVADI","Avadi","CHENNAI","Tamil Nadu",600055,6
"1770","KENDRIYA VIDYALAYA CRPF AVADI","Avadicrpf","CHENNAI","Tamil Nadu",,6
"1771","KENDRIYA VIDYALAYA HVF AVADI","Avadihvf","CHENNAI","Tamil Nadu",600054,6
"1772","KENDRIYA VIDYALAYA OCF AVADI","Avadiocf","CHENNAI","Tamil Nadu",600054,6
"1773","KENDRIAYA VIDYALAYA DGI COMPLEX","Dgicomplex","CHENNAI","Tamil Nadu",600114,6
"1774","KENDRIYA VIDYALAYA GILL NAGAR CHENNAI","Gillnagar","CHENNAI","Tamil Nadu",600094,6
"1775","KENDRIYA VIDYALAYA IIT CHENNAI","Chennaiiiit","CHENNAI","Tamil Nadu",,6
"1776","KENDRIYA VIDYALAYA ISLAND GROUNDS","Islandgrounds","CHENNAI","Tamil Nadu",600002,6
"1777","KENDRIYA VIDYALAYA MINAMBAKKAM","Minambakkam","CHENNAI","Tamil Nadu",,6
"1778","KENDRIYA VIDYALAYA AFS NO.I TAMBARAM","Tambaram","CHENNAI","Tamil Nadu",,6
"1779","KENDRIYA VIDYALAYA NO. II TAMBARAM","Tambaram","CHENNAI","Tamil Nadu",,6
"1786","KENDRIYA VIDYALAYA COIMBATORE","Coimbatore","CHENNAI","Tamil Nadu",,6
"1787","KENDRIYA VIDYALAYA SULUR","Sulur","CHENNAI","Tamil Nadu",682507,6
"1788","KEDRIYA VIDYALAYA NO.I KALPAKKAM","Kalpakkam","CHENNAI","Tamil Nadu",603102,6
"1789","KENDRIYA VIDYALAYA NO II KALPAKKAM","Kalpakkam","CHENNAI","Tamil Nadu",603102,6
"2111","KENDRIYA VIDYALAYA NADIA (RANAGHAT)","Ranaghat","KOLKATA","West Bengal",741201,6
"2115","KENDRIYA VIDYALAYA RAMBI (TEESTA LOW DAM PROJECT-III)","Rambiteestaldp","KOLKATA","West Bengal",340008,6
"2178","KENDRIYA VIDYALAYA BSF KRISHNA NAGAR","Krishnanagarbsf","KOLKATA","West Bengal",741101,6
"2179","KENDRIYA VIDYALAYA BSF RANINAGAR","Raninagarbsf","KOLKATA","West Bengal",735133,6
"2180","KENDRIYA VIDYALAYA BSF GANDHINAGAR","Gandhinagarbsf","KOLKATA","West Bengal",736179,6
"2181","KENDRIYA VIDYALAYA TARKESWAR","Tarkeswar","KOLKATA","West Bengal",712410,6
"2182","KENDRIYA VIDYALAYA BOLPUR","Bolpur","KOLKATA","West Bengal",731235,6
"2183","KENDRIYA VIDYALAYA BSF ARADHPUR","Aradhpurbsf","KOLKATA","West Bengal",732141,6
"2184","KENDRIYA VIDYALAYA BSF BAIKUNTHPUR","Baikunthpurbsf","KOLKATA","West Bengal",734008,6
"2338","KENDRIYA VIDYALAYA BANDEL RAILWAY COLONY","Bandelrlycolony","KOLKATA","West Bengal",712123,6
"2368","KV RAILWAY COLONY KHARAGPUR","Serrlykharagpur","KOLKATA","West Bengal",721301,6
"2415","KENDRIYA VIDYALAYA NFR NEW JALPAIGURI","Njp","KOLKATA","West Bengal",734007,6
"2419","KENDRIYA VIDYALAYA GC CRPF SILIGURI","Gccrpfsguj","KOLKATA","West Bengal",734012,6
"1487","KENDRIYA VIDYALAYA TEHRAN","Tehran","","",248005,6
"1897","KENDRIYA VIDYALAYA KATHMANDU","Kathmandu","","",,6
"1898","KENDRIYA VIDYALAYA MOSCOW","Moscow","","",437009,6
"1036","KENDRIYA VIDYALAYA RAJKOT","Rajkot","AHMEDABAD","Gujarat",360005,6
"2447","Kendriya Vidyalaya Central University of Punjab","Bhatinda","CHANDIGARH","Punjab",151401,6
"2446","Kendriya Vidyalaya National Inatitute of Technology (NIT) Arunachal Pradesh","","TINSUKIA","Arunachal Pradesh",,6
"2448","KENDRIYA VIDYALAYA NIT Rourkela","Nitrourkela","BHUBANESWAR","Odisha",,6
"2449","KENDRIYA VIDYALAYA 205 CB CRPF BARACHATTI","Cbbarachatti","PATNA","Bihar",791113,6
"2450","KENDRIYA VIDYALAYA IIT TIRUPATI","Iittirupati","HYDERABAD","Andhra Pradesh",,6
"1820","KENDRIYA VIDYALAYA DEORIA","Deoria","VARANASI","Uttar Pradesh",274001,6
"1838","KENDRIYA VIDYALAYA MUGHAL SARAI","Mughalsarai","VARANASI","Uttar Pradesh",232101,6
"2391","KENDRIYA VIDYALAYA KAUHAR AMETHI","Amethikauhar","VARANASI","Uttar Pradesh",227405,6
"2394","KENDRIYA VIDYALAYA MIRZAPUR","Mirzapur","VARANASI","Uttar Pradesh",231001,6
